start_ip,end_ip,join_key,city,region,country,latitude,longitude,postal_code,timezone
104.151.73.110,104.151.73.111,104.151.0.0,Düsseldorf,North Rhine-Westphalia,DE,51.22172,6.77616,40210,Europe/Berlin
105.97.225.162,105.97.225.162,105.97.0.0,Algiers,Algiers,DZ,36.73225,3.08746,16006,Africa/Algiers
102.29.212.76,102.29.212.79,102.29.0.0,Douz,Kebili Governorate,TN,33.46632,9.0203,,Africa/Tunis
103.175.46.47,103.175.46.47,103.175.0.0,Kuningan,West Java,ID,-6.97583,108.48306,,Asia/Jakarta
106.192.26.157,106.192.26.158,106.192.0.0,Kulu,Himachal Pradesh,IN,31.95835,77.10823,175101,Asia/Kolkata
106.193.63.158,106.193.63.159,106.193.0.0,Naregal,Karnataka,IN,15.57316,75.80805,582119,Asia/Kolkata
104.224.152.0,104.224.167.255,104.224.0.0,Los Angeles,California,US,34.0443,-118.2509,90014,America/Los_Angeles
1.54.79.166,1.54.79.167,1.54.0.0,Bắc Giang,Bắc Giang,VN,21.27307,106.1946,26130,Asia/Bangkok
101.182.77.188,101.182.77.188,101.182.0.0,Huntly,Victoria,AU,-36.66451,144.33382,3551,Australia/Melbourne
106.192.195.230,106.192.195.230,106.192.0.0,Pālampur,Himachal Pradesh,IN,32.0478,76.7256,176077,Asia/Kolkata
1.146.176.106,1.146.176.107,1.146.0.0,Greenbushes,Western Australia,AU,-33.84965,116.05819,6254,Australia/Perth
101.167.36.22,101.167.36.31,101.167.0.0,Townsville,Queensland,AU,-19.29718,146.76603,4814,Australia/Brisbane
103.249.36.8,103.249.36.14,103.249.0.0,Hindupur,Andhra Pradesh,IN,13.82807,77.49143,515202,Asia/Kolkata
106.192.20.219,106.192.20.219,106.192.0.0,Una,Himachal Pradesh,IN,31.65329,76.34464,174321,Asia/Kolkata
1.1.162.106,1.1.162.107,1.1.0.0,Khun Tan,Chiang Rai,TH,19.83353,100.25858,57340,Asia/Bangkok
101.143.72.112,101.143.72.112,101.143.0.0,Himeji,Hyōgo,JP,34.81667,134.7,680-0301,Asia/Tokyo
106.181.149.64,106.181.149.65,106.181.0.0,Yokohama,Kanagawa,JP,35.4923,139.6301,221-0077,Asia/Tokyo
102.168.12.79,102.168.12.80,102.168.0.0,Sousse,Sousse Governorate,TN,35.82539,10.63699,,Africa/Tunis
1.146.54.194,1.146.54.195,1.146.0.0,Cairns,Queensland,AU,-16.92366,145.76613,4870,Australia/Brisbane
1.200.255.240,1.200.255.255,1.200.0.0,Taipei,Taiwan,TW,25.04776,121.53185,,Asia/Taipei
1.20.54.78,1.20.54.79,1.20.0.0,Wang Thong,Phitsanulok,TH,16.82458,100.42936,65130,Asia/Bangkok
106.197.183.30,106.197.183.39,106.197.0.0,Arcot,Tamil Nadu,IN,12.89652,79.2718,632509,Asia/Kolkata
102.25.92.192,102.25.92.207,102.25.0.0,As Sanad,Gafsa,TN,34.4628,9.26404,,Africa/Tunis
101.176.38.185,101.176.38.188,101.176.0.0,Melbourne,Victoria,AU,-37.8928,145.05802,3163,Australia/Melbourne
1.52.37.88,1.52.37.88,1.52.0.0,Ðông Hà,Quảng Trị,VN,16.81625,107.10031,48199,Asia/Bangkok
101.51.128.0,101.51.128.3,101.51.0.0,Hat Yai,Songkhla,TH,7.00836,100.47668,90110,Asia/Bangkok
104.235.116.166,104.235.116.169,104.235.0.0,Kewanee,Illinois,US,41.24559,-89.92483,61443,America/Chicago
106.161.194.80,106.161.194.83,106.161.0.0,Kobe,Hyōgo,JP,34.6452,135.0234,655-0049,Asia/Tokyo
105.97.226.230,105.97.226.232,105.97.0.0,Algiers,Algiers,DZ,36.73225,3.08746,16006,Africa/Algiers
105.4.3.192,105.4.3.255,105.4.0.0,Johannesburg,Gauteng,ZA,-26.20227,28.04363,2041,Africa/Johannesburg
103.5.72.0,103.5.74.55,103.5.0.0,Auckland,Auckland,NZ,-36.84853,174.76349,1010,Pacific/Auckland
101.185.154.96,101.185.154.103,101.185.0.0,Perth,Western Australia,AU,-31.75,115.8,6946,Australia/Perth
104.200.45.32,104.200.45.63,104.200.0.0,Collierville,California,US,38.21464,-121.26884,95220,America/Los_Angeles
1.20.35.216,1.20.35.218,1.20.0.0,Bangkok,Bangkok,TH,13.75398,100.50144,10200,Asia/Bangkok
1.53.3.83,1.53.3.84,1.53.0.0,Ho Chi Minh City,Ho Chi Minh,VN,10.82302,106.62965,71606,Asia/Ho_Chi_Minh
1.215.17.212,1.215.17.213,1.215.0.0,Cheonan,Chungcheongnam-do,KR,36.8065,127.1522,31126,Asia/Seoul
106.197.172.114,106.197.172.114,106.197.0.0,Chennai,Tamil Nadu,IN,13.08784,80.27847,600001,Asia/Kolkata
103.235.10.222,103.235.10.223,103.235.0.0,Ingrāj Bāzār,West Bengal,IN,25.00447,88.14573,732208,Asia/Kolkata
1.40.95.0,1.40.95.79,1.40.0.0,Sydney,New South Wales,AU,-33.9425,150.9377,1875,Australia/Sydney
106.203.32.212,106.203.32.215,106.203.0.0,Āttayyāmpatti,Tamil Nadu,IN,11.53272,78.05363,637501,Asia/Kolkata
104.250.179.12,104.250.179.12,104.250.0.0,Rowland Heights,California,US,33.97612,-117.90534,91748,America/Los_Angeles
102.170.255.221,102.170.255.222,102.170.0.0,Sfax,Sfax Governorate,TN,34.74056,10.76028,,Africa/Tunis
101.112.18.0,101.112.18.9,101.112.0.0,Sydney,New South Wales,AU,-33.75,150.7,2751,Australia/Sydney
105.97.237.106,105.97.237.107,105.97.0.0,Sétif,Sétif,DZ,36.19112,5.41373,19034,Africa/Algiers
1.187.100.151,1.187.100.153,1.187.0.0,Pune,Maharashtra,IN,18.5148,73.8358,411004,Asia/Kolkata
106.204.3.114,106.204.3.115,106.204.0.0,Sonīpat,Haryana,IN,28.99478,77.01937,131001,Asia/Kolkata
106.200.59.214,106.200.59.215,106.200.0.0,Kannur,Kerala,IN,11.9303,75.4455,670591,Asia/Kolkata
103.78.150.98,103.78.150.98,103.78.0.0,Hisar,Haryana,IN,29.15394,75.72294,125004,Asia/Kolkata
1.251.79.176,1.251.79.191,1.251.0.0,Seoul,Seoul,KR,37.566,126.9784,03141,Asia/Seoul
104.28.153.253,104.28.153.253,104.28.0.0,Shrewsbury,New Jersey,US,40.1399,-74.465,08514,America/New_York
1.123.86.32,1.123.86.39,1.123.0.0,Sunshine Coast,Queensland,AU,-26.693,153.1086,4557,Australia/Brisbane
102.186.4.160,102.186.5.31,102.186.0.0,Cairo,Cairo,EG,30.06263,31.24967,,Africa/Cairo
102.178.97.0,102.178.106.255,102.178.0.0,Ouagadougou,Centre,BF,12.36566,-1.53388,,Africa/Ouagadougou
105.158.62.120,105.158.62.120,105.158.0.0,Meknès,Fès-Meknès,MA,33.89352,-5.54727,50102,Africa/Casablanca
106.202.109.16,106.202.109.23,106.202.0.0,Delhi,Delhi,IN,28.65195,77.23149,110001,Asia/Kolkata
103.138.224.224,103.138.224.255,103.138.0.0,Sydney,New South Wales,AU,-33.748,151.2253,2086,Australia/Sydney
105.92.9.16,105.92.9.31,105.92.0.0,Sohag,Sohag,EG,26.55695,31.69478,,Africa/Cairo
101.139.181.77,101.139.181.77,101.139.0.0,Tainan,Taiwan,TW,22.99083,120.21333,,Asia/Taipei
104.151.68.194,104.151.68.194,104.151.0.0,Düsseldorf,North Rhine-Westphalia,DE,51.22172,6.77616,40210,Europe/Berlin
101.108.238.100,101.108.238.101,101.108.0.0,Manang,Satun,TH,6.99933,99.92161,91000,Asia/Bangkok
1.0.86.220,1.0.86.221,1.0.0.0,Tottori,Tottori,JP,35.5,134.23333,680-0013,Asia/Tokyo
103.241.62.0,103.241.62.255,103.241.0.0,Singapore,,SG,1.341,103.9401,478969,Asia/Singapore
105.246.55.174,105.246.55.174,105.246.0.0,Rustenburg,North-West,ZA,-25.66756,27.24208,0202,Africa/Johannesburg
101.185.87.42,101.185.87.43,101.185.0.0,Peterborough,South Australia,AU,-32.97205,138.84073,5422,Australia/Adelaide
101.190.221.194,101.190.221.195,101.190.0.0,Eglinton,New South Wales,AU,-33.37731,149.54654,2795,Australia/Sydney
106.194.155.220,106.194.155.220,106.194.0.0,Indore,Madhya Pradesh,IN,22.7233,75.87,452001,Asia/Kolkata
101.136.105.0,101.136.105.255,101.136.0.0,Neihu,Taiwan,TW,25.0815,121.58809,,Asia/Taipei
101.167.30.130,101.167.30.133,101.167.0.0,Walkerston,Queensland,AU,-21.16097,149.05814,4751,Australia/Brisbane
1.156.245.84,1.156.245.87,1.156.0.0,Brisbane,Queensland,AU,-27.5442,152.9569,4073,Australia/Brisbane
106.202.77.116,106.202.77.116,106.202.0.0,Gurgaon,Haryana,IN,28.4601,77.02635,122004,Asia/Kolkata
106.161.99.94,106.161.99.94,106.161.0.0,Kagoshima,Kagoshima,JP,31.5429,130.5247,891-0111,Asia/Tokyo
106.193.39.84,106.193.39.85,106.193.0.0,Udupi,Karnataka,IN,13.33467,74.74617,576101,Asia/Kolkata
101.112.181.188,101.112.181.195,101.112.0.0,Sydney,New South Wales,AU,-33.7645,150.87467,2767,Australia/Sydney
103.72.176.80,103.72.176.95,103.72.0.0,Cochin,Kerala,IN,9.93988,76.26022,682507,Asia/Kolkata
105.253.231.4,105.253.231.7,105.253.0.0,Ladysmith,KwaZulu-Natal,ZA,-28.55874,29.77896,2900,Africa/Johannesburg
105.226.38.76,105.226.39.255,105.226.0.0,Durban,KwaZulu-Natal,ZA,-29.90835,30.95,4089,Africa/Johannesburg
101.189.61.124,101.189.61.125,101.189.0.0,Tom Price,Western Australia,AU,-22.6939,117.7931,6751,Australia/Perth
101.175.152.208,101.175.152.215,101.175.0.0,Sydney,New South Wales,AU,-33.7301,150.903,2763,Australia/Sydney
105.204.255.207,105.204.255.208,105.204.0.0,Cairo,Cairo,EG,30.06263,31.24967,,Africa/Cairo
104.28.158.222,104.28.158.228,104.28.0.0,East Los Angeles,California,US,34.0239,-118.17202,90022,America/Los_Angeles
1.145.250.132,1.145.250.140,1.145.0.0,Melbourne,Victoria,AU,-37.8167,144.9879,8002,Australia/Melbourne
101.112.70.104,101.112.70.111,101.112.0.0,Sydney,New South Wales,AU,-33.86785,151.20732,1001,Australia/Sydney
1.145.254.48,1.145.254.51,1.145.0.0,Middleton,Tasmania,AU,-43.23162,147.25292,7163,Australia/Hobart
101.163.4.8,101.163.4.95,101.163.0.0,Brisbane,Queensland,AU,-27.39618,152.9298,4055,Australia/Brisbane
101.108.18.10,101.108.18.10,101.108.0.0,Bang Saphan,Prachuap Khiri Khan,TH,11.21259,99.51167,77140,Asia/Bangkok
103.107.132.0,103.107.132.255,103.107.0.0,Paltan,Dhaka,BD,23.7701,90.3628,1207,Asia/Dhaka
101.103.132.76,101.103.132.81,101.103.0.0,Adelaide,South Australia,AU,-34.92177,138.65126,5068,Australia/Adelaide
103.10.113.126,103.10.113.131,103.10.0.0,Tokyo,Tokyo,JP,35.691,139.7679,101-0047,Asia/Tokyo
101.179.79.32,101.179.79.49,101.179.0.0,Brisbane,Queensland,AU,-27.4614,153.0231,4004,Australia/Brisbane
106.206.154.84,106.206.154.87,106.206.0.0,Jaipur,Rajasthan,IN,26.91962,75.78781,302001,Asia/Kolkata
102.185.101.241,102.185.101.242,102.185.0.0,Alexandria,Alexandria,EG,31.20176,29.91582,,Africa/Cairo
105.97.229.110,105.97.229.111,105.97.0.0,Algiers,Algiers,DZ,36.73225,3.08746,16006,Africa/Algiers
103.57.188.0,103.57.188.255,103.57.0.0,Kuala Lumpur,Kuala Lumpur,MY,3.1412,101.68653,50050,Asia/Kuala_Lumpur
104.222.127.18,104.222.127.19,104.222.0.0,Chatham,Ontario,CA,42.41224,-82.18494,N7L,America/Toronto
103.27.116.244,103.27.116.244,103.27.0.0,Singapore,,SG,1.28967,103.85007,018989,Asia/Singapore
102.109.195.7,102.109.195.9,102.109.0.0,Sfax,Sfax Governorate,TN,34.74056,10.76028,,Africa/Tunis
101.138.58.23,101.138.58.27,101.138.0.0,Taoyuan City,Taiwan,TW,24.99368,121.29696,,Asia/Taipei
106.203.12.128,106.203.12.129,106.203.0.0,Injambakkam,Tamil Nadu,IN,12.89,80.2313,600119,Asia/Kolkata
106.193.1.176,106.193.1.177,106.193.0.0,Gulbarga,Karnataka,IN,17.33583,76.83757,585105,Asia/Kolkata
106.202.161.231,106.202.161.231,106.202.0.0,Nashik,Maharashtra,IN,19.99727,73.79096,422221,Asia/Kolkata
1.187.126.110,1.187.126.123,1.187.0.0,Delhi,Delhi,IN,28.65195,77.23149,110001,Asia/Kolkata
106.161.143.190,106.161.143.191,106.161.0.0,Hita,Oita,JP,33.3298,130.9292,877-0083,Asia/Tokyo
1.186.85.210,1.186.85.210,1.186.0.0,Delhi,Delhi,IN,28.65195,77.23149,110001,Asia/Kolkata
104.157.227.160,104.157.227.191,104.157.0.0,Toronto,Ontario,CA,43.7915,-79.4103,M2M,America/Toronto
103.122.168.0,103.122.169.255,103.122.0.0,Delhi,Delhi,IN,28.6063,77.30449,110091,Asia/Kolkata
103.140.147.95,103.140.147.95,103.140.0.0,Singapore,,SG,1.28967,103.85007,018989,Asia/Singapore
104.60.109.48,104.60.109.63,104.60.0.0,Middleburg,Florida,US,30.084,-81.8645,32068,America/New_York
1.47.163.204,1.47.163.207,1.47.0.0,Ban Talat Yai,Phuket,TH,7.88481,98.40008,83120,Asia/Bangkok
106.154.136.112,106.154.136.116,106.154.0.0,Osaka,Ōsaka,JP,34.69374,135.50218,543-0062,Asia/Tokyo
101.185.161.36,101.185.161.39,101.185.0.0,South Hedland,Western Australia,AU,-20.40655,118.60069,6722,Australia/Perth
101.51.17.176,101.51.17.185,101.51.0.0,Nakhon Ratchasima,Nakhon Ratchasima,TH,14.97066,102.10196,30280,Asia/Bangkok
104.222.113.40,104.222.113.47,104.222.0.0,Toronto,Ontario,CA,43.6803,-79.3538,M4K,America/Toronto
102.159.183.64,102.159.183.67,102.159.0.0,Sousse,Sousse Governorate,TN,35.82539,10.63699,,Africa/Tunis
101.103.6.184,101.103.6.187,101.103.0.0,Adelaide,South Australia,AU,-34.92866,138.59863,5000,Australia/Adelaide
105.245.231.241,105.245.231.252,105.245.0.0,Cape Town,Western Cape,ZA,-33.92584,18.42322,7945,Africa/Johannesburg
106.205.62.110,106.205.62.111,106.205.0.0,Lucknow,Uttar Pradesh,IN,26.83928,80.92313,226004,Asia/Kolkata
105.61.216.128,105.61.217.127,105.61.0.0,Nairobi,Nairobi Area,KE,-1.28333,36.81667,,Africa/Nairobi
1.1.159.56,1.1.159.59,1.1.0.0,Khuan Don,Satun,TH,6.78758,100.07778,91130,Asia/Bangkok
102.172.197.221,102.172.197.227,102.172.0.0,Sfax,Sfax Governorate,TN,34.74056,10.76028,,Africa/Tunis
102.26.206.128,102.26.206.191,102.26.0.0,Medenine,Medenine Governorate,TN,33.35495,10.50548,,Africa/Tunis
102.26.156.208,102.26.156.223,102.26.0.0,Sousse,Sousse Governorate,TN,35.82539,10.63699,,Africa/Tunis
103.46.233.242,103.46.233.243,103.46.0.0,Pālakollu,Andhra Pradesh,IN,16.5167,81.73,534265,Asia/Kolkata
106.181.165.144,106.181.165.144,106.181.0.0,Nagoya,Aichi,JP,35.157,136.8752,454-0808,Asia/Tokyo
1.0.86.80,1.0.86.97,1.0.0.0,Yamaguchi,Yamaguchi,JP,34.1722,131.4814,753-0042,Asia/Tokyo
102.156.137.11,102.156.137.11,102.156.0.0,Sousse,Sousse Governorate,TN,35.82539,10.63699,,Africa/Tunis
101.51.244.64,101.51.244.79,101.51.0.0,Rayong,Rayong,TH,12.68095,101.25798,21000,Asia/Bangkok
1.156.1.68,1.156.1.97,1.156.0.0,Sydney,New South Wales,AU,-34.00957,151.0617,2226,Australia/Sydney
101.51.125.8,101.51.125.9,101.51.0.0,Takua Pa,Phang Nga,TH,8.8705,98.34383,82110,Asia/Bangkok
105.9.253.48,105.9.253.127,105.9.0.0,Cape Town,Western Cape,ZA,-34.05,18.4833,7805,Africa/Johannesburg
105.112.92.128,105.112.96.1,105.112.0.0,Lagos,Lagos,NG,6.45407,3.39467,,Africa/Lagos
1.43.54.122,1.43.54.255,1.43.0.0,Sydney,New South Wales,AU,-33.9383,151.108,2208,Australia/Sydney
106.203.158.80,106.203.158.85,106.203.0.0,Guwahati,Assam,IN,26.1844,91.7458,781030,Asia/Kolkata
101.137.147.110,101.137.147.111,101.137.0.0,Bade,Taiwan,TW,24.92981,121.28372,,Asia/Taipei
101.108.179.254,101.108.179.254,101.108.0.0,Pua,Nan,TH,19.17503,100.91622,55120,Asia/Bangkok
103.180.118.230,103.180.118.230,103.180.0.0,Lamongan,East Java,ID,-7.11667,112.41667,,Asia/Jakarta
102.107.49.195,102.107.49.195,102.107.0.0,Monastir,Monastir Governorate,TN,35.77799,10.82617,,Africa/Tunis
104.10.86.0,104.10.87.255,104.10.0.0,Austin,Texas,US,30.1743,-97.8225,78748,America/Chicago
103.146.202.0,103.146.203.255,103.146.0.0,Jakarta,Jakarta,ID,-6.21462,106.84513,,Asia/Jakarta
1.121.193.158,1.121.193.255,1.121.0.0,Adelaide,South Australia,AU,-34.93844,138.6396,5065,Australia/Adelaide
1.54.74.216,1.54.74.231,1.54.0.0,Biên Hòa,Đồng Nai,VN,10.94469,106.82432,76199,Asia/Ho_Chi_Minh
1.145.143.82,1.145.143.87,1.145.0.0,Melbourne,Victoria,AU,-37.85667,144.61067,3024,Australia/Melbourne
1.235.50.0,1.235.50.255,1.235.0.0,Seoul,Seoul,KR,37.566,126.9784,03141,Asia/Seoul
1.54.178.19,1.54.178.19,1.54.0.0,Ho Chi Minh City,Ho Chi Minh,VN,10.82302,106.62965,71606,Asia/Ho_Chi_Minh
102.106.244.118,102.106.244.119,102.106.0.0,Sfax,Sfax Governorate,TN,34.74056,10.76028,,Africa/Tunis
102.107.148.192,102.107.148.223,102.107.0.0,Sousse,Sousse Governorate,TN,35.82539,10.63699,,Africa/Tunis
1.187.131.144,1.187.131.144,1.187.0.0,Amarnāth,Maharashtra,IN,19.2,73.16667,421306,Asia/Kolkata
106.205.242.172,106.205.242.175,106.205.0.0,Surat,Gujarat,IN,21.18332,72.6519,394517,Asia/Kolkata
103.68.156.0,103.68.159.255,103.68.0.0,Dumaguete,Central Visayas,PH,9.30722,123.30261,6267,Asia/Manila
102.41.167.216,102.41.167.255,102.41.0.0,Al Manşūrah,Dakahlia,EG,31.03637,31.38069,,Africa/Cairo
106.202.140.177,106.202.140.177,106.202.0.0,Varanasi,Uttar Pradesh,IN,25.31668,83.01041,221001,Asia/Kolkata
106.207.139.58,106.207.139.61,106.207.0.0,Jaipur,Rajasthan,IN,26.9295,75.7962,302022,Asia/Kolkata
1.47.205.248,1.47.205.249,1.47.0.0,Phrom Khiri,Nakhon Si Thammarat,TH,8.52333,99.82275,80250,Asia/Bangkok
101.139.163.16,101.139.163.23,101.139.0.0,Kaohsiung,Takao,TW,22.61626,120.31333,,Asia/Taipei
106.181.73.157,106.181.73.157,106.181.0.0,Zama,Kanagawa,JP,35.5278,139.3185,243-0301,Asia/Tokyo
102.106.92.20,102.106.92.21,102.106.0.0,Sousse,Sousse Governorate,TN,35.82539,10.63699,,Africa/Tunis
101.181.118.32,101.181.118.57,101.181.0.0,Melbourne,Victoria,AU,-37.7693,145.04797,3079,Australia/Melbourne
104.157.103.124,104.157.103.127,104.157.0.0,Olds,Alberta,CA,51.78341,-114.10199,T4H,America/Edmonton
106.197.149.36,106.197.149.39,106.197.0.0,Vellore,Tamil Nadu,IN,12.9351,79.1865,632204,Asia/Kolkata
106.200.222.58,106.200.222.65,106.200.0.0,Bengaluru,Karnataka,IN,12.97194,77.59369,560002,Asia/Kolkata
105.110.200.0,105.110.200.255,105.110.0.0,Constantine,Constantine,DZ,36.3792,6.6086,25000,Africa/Algiers
101.112.168.200,101.112.168.203,101.112.0.0,Newcastle,New South Wales,AU,-32.9923,151.6803,2306,Australia/Sydney
104.148.190.92,104.148.190.103,104.148.0.0,New City,New York,US,41.1476,-73.98931,10956,America/New_York
101.176.204.168,101.176.204.169,101.176.0.0,Sydney,New South Wales,AU,-33.7375,150.8468,2761,Australia/Sydney
101.180.21.108,101.180.21.111,101.180.0.0,Dubbo,New South Wales,AU,-32.24295,148.60484,2830,Australia/Sydney
1.210.132.128,1.210.132.255,1.210.0.0,Wŏnju,Gangwon-do,KR,37.3347,127.9687,26457,Asia/Seoul
104.179.242.0,104.179.242.255,104.179.0.0,North Richland Hills,Texas,US,32.8343,-97.2289,76180,America/Chicago
101.163.14.160,101.163.14.171,101.163.0.0,Brisbane,Queensland,AU,-27.43047,153.0398,4010,Australia/Brisbane
105.243.34.128,105.243.34.255,105.243.0.0,Bloemfontein,Orange Free State,ZA,-29.12107,26.214,9300,Africa/Johannesburg
102.106.100.212,102.106.100.212,102.106.0.0,Tunis,Tunis Governorate,TN,36.81897,10.16579,,Africa/Tunis
102.173.66.14,102.173.66.14,102.173.0.0,Sousse,Sousse Governorate,TN,35.82539,10.63699,,Africa/Tunis
106.194.164.102,106.194.164.103,106.194.0.0,Kumbhrāj,Madhya Pradesh,IN,24.1669,77.12229,473115,Asia/Kolkata
1.66.242.208,1.66.242.223,1.66.0.0,Hiroshima,Hiroshima,JP,34.3919,132.459,730-0036,Asia/Tokyo
102.193.110.0,102.193.118.255,102.193.0.0,Port Louis,Port Louis,MU,-20.16194,57.49889,,Indian/Mauritius
106.204.163.108,106.204.163.111,106.204.0.0,Hānsi,Haryana,IN,29.10239,75.96253,125033,Asia/Kolkata
102.66.106.72,102.66.106.81,102.66.0.0,Hoedspruit,Limpopo,ZA,-24.35,30.9667,1382,Africa/Johannesburg
102.140.76.0,102.140.77.67,102.140.0.0,Virginia,Orange Free State,ZA,-28.1167,26.9,9484,Africa/Johannesburg
105.205.4.28,105.205.4.28,105.205.0.0,Cairo,Cairo,EG,30.06263,31.24967,,Africa/Cairo
106.161.246.100,106.161.246.113,106.161.0.0,Tokyo,Tokyo,JP,35.7335,139.7704,116-0013,Asia/Tokyo
103.157.153.146,103.157.153.255,103.157.0.0,Mumbai,Maharashtra,IN,19.0931,72.9049,400078,Asia/Kolkata
1.41.37.104,1.41.37.207,1.41.0.0,Sydney,New South Wales,AU,-33.91474,150.88237,2168,Australia/Sydney
103.48.211.95,103.48.211.102,103.48.0.0,Brisbane,Queensland,AU,-27.46794,153.02809,4000,Australia/Brisbane
103.153.188.0,103.153.189.255,103.153.0.0,South Tangerang,Banten,ID,-6.28862,106.71789,,Asia/Jakarta
106.154.89.52,106.154.89.53,106.154.0.0,Osaka,Ōsaka,JP,34.6831,135.4845,550-0006,Asia/Tokyo
1.47.168.194,1.47.168.195,1.47.0.0,Hat Yai,Songkhla,TH,7.00836,100.47668,90110,Asia/Bangkok
1.33.1.112,1.33.1.127,1.33.0.0,Yaita,Tochigi,JP,36.8103,139.9312,329-2161,Asia/Tokyo
102.169.55.242,102.169.55.242,102.169.0.0,Sousse,Sousse Governorate,TN,35.82539,10.63699,,Africa/Tunis
1.141.238.0,1.141.242.255,1.141.0.0,Sydney,New South Wales,AU,-33.926,151.1935,1460,Australia/Sydney
1.41.128.96,1.41.128.255,1.41.0.0,Sydney,New South Wales,AU,-33.8396,150.9842,2160,Australia/Sydney
105.97.234.55,105.97.234.57,105.97.0.0,Algiers,Algiers,DZ,36.73225,3.08746,16006,Africa/Algiers
104.132.236.0,104.132.236.255,104.132.0.0,Frankfurt am Main,Hesse,DE,50.11552,8.68417,60306,Europe/Berlin
1.248.110.226,1.248.110.247,1.248.0.0,Cheongju-si,North Chungcheong,KR,36.63722,127.48972,28507,Asia/Seoul
103.17.99.119,103.17.99.120,103.17.0.0,Dhāmnod,Madhya Pradesh,IN,22.20928,75.47057,454552,Asia/Kolkata
102.129.138.166,102.129.138.167,102.129.0.0,Kalasin,Kalasin,TH,16.43281,103.50658,46000,Asia/Bangkok
102.196.241.128,102.196.241.255,102.196.0.0,Ahvaz,Khuzestan,IR,31.31901,48.6842,,Asia/Tehran
1.121.205.80,1.121.205.119,1.121.0.0,Adelaide,South Australia,AU,-34.81667,138.61713,5095,Australia/Adelaide
1.200.128.45,1.200.128.49,1.200.0.0,Taichung,Taiwan,TW,24.1469,120.6839,,Asia/Taipei
102.154.85.192,102.154.85.255,102.154.0.0,As Sanad,Gafsa,TN,34.4628,9.26404,,Africa/Tunis
1.20.26.152,1.20.26.159,1.20.0.0,Pak Phanang,Nakhon Si Thammarat,TH,8.35109,100.20195,80140,Asia/Bangkok
1.172.167.96,1.172.167.103,1.172.0.0,Magong,Taiwan,TW,23.5654,119.58627,,Asia/Taipei
104.44.198.124,104.44.198.124,104.44.0.0,Redmond,Washington,US,47.67399,-122.12151,98052,America/Los_Angeles
104.77.165.0,104.77.165.255,104.77.0.0,Sydney,New South Wales,AU,-33.86785,151.20732,1001,Australia/Sydney
102.106.131.142,102.106.131.142,102.106.0.0,Sfax,Sfax Governorate,TN,34.74056,10.76028,,Africa/Tunis
103.235.8.106,103.235.8.106,103.235.0.0,Secunderabad,Telangana,IN,17.50427,78.54263,500070,Asia/Kolkata
106.196.118.216,106.196.118.227,106.196.0.0,Amritsar,Punjab,IN,31.67568,74.87082,143008,Asia/Kolkata
106.203.6.161,106.203.6.162,106.203.0.0,Puducherry,Puducherry,IN,11.93381,79.82979,605007,Asia/Kolkata
101.108.169.132,101.108.169.143,101.108.0.0,Ratchaburi,Ratchaburi,TH,13.53671,99.81712,70000,Asia/Bangkok
102.185.155.240,102.185.155.241,102.185.0.0,Port Said,Port Said,EG,31.26531,32.3019,,Africa/Cairo
106.201.158.144,106.201.158.175,106.201.0.0,Lucknow,Uttar Pradesh,IN,26.83928,80.92313,226004,Asia/Kolkata
102.66.30.64,102.66.30.143,102.66.0.0,Uitenhage,Eastern Cape,ZA,-33.7653,25.4022,6230,Africa/Johannesburg
101.137.237.142,101.137.237.143,101.137.0.0,Douliu,Taiwan,TW,23.70944,120.54333,,Asia/Taipei
106.204.215.106,106.204.215.106,106.204.0.0,Chandīgarh,Chandigarh,IN,30.73629,76.7884,160001,Asia/Kolkata
102.181.154.192,102.181.154.255,102.181.0.0,Ad-Damazin,Blue Nile,SD,11.7891,34.3592,,Africa/Khartoum
105.151.210.128,105.151.210.255,105.151.0.0,Larache,Tanger-Tetouan-Al Hoceima,MA,35.1932,-6.1557,92002,Africa/Casablanca
102.189.70.128,102.189.70.159,102.189.0.0,Al Maḩallah al Kubrá,Gharbia,EG,30.97063,31.1669,,Africa/Cairo
106.201.96.8,106.201.96.11,106.201.0.0,Bengaluru,Karnataka,IN,12.97194,77.59369,560002,Asia/Kolkata
103.102.102.40,103.102.102.47,103.102.0.0,Delhi,Delhi,IN,28.65195,77.23149,110001,Asia/Kolkata
101.179.141.216,101.179.141.231,101.179.0.0,Perth,Western Australia,AU,-31.94765,116.01335,6057,Australia/Perth
106.204.130.214,106.204.130.215,106.204.0.0,Pānīpat,Haryana,IN,29.38747,76.96825,132103,Asia/Kolkata
106.129.24.208,106.129.24.211,106.129.0.0,Matsudo,Chiba,JP,35.7768,139.9764,270-2216,Asia/Tokyo
106.192.152.186,106.192.152.187,106.192.0.0,Pataudi,Haryana,IN,28.48092,76.7847,122414,Asia/Kolkata
100.7.203.100,100.7.203.117,100.7.0.0,King George,Virginia,US,38.26818,-77.18442,22485,America/New_York
1.32.120.120,1.32.120.130,1.32.0.0,Miri,Sarawak,MY,4.39928,113.99163,98007,Asia/Kuching
106.159.71.219,106.159.71.255,106.159.0.0,Sendai,Miyagi,JP,38.3117,140.937,983-0821,Asia/Tokyo
105.97.193.10,105.97.193.11,105.97.0.0,Ouargla,Ouargla,DZ,31.94932,5.32502,30012,Africa/Algiers
1.0.155.184,1.0.155.185,1.0.0.0,Krabi,Krabi,TH,8.07257,98.91052,81130,Asia/Bangkok
106.205.153.232,106.205.153.237,106.205.0.0,Shimla,Himachal Pradesh,IN,31.10442,77.16662,171003,Asia/Kolkata
104.144.102.0,104.144.103.255,104.144.0.0,Buffalo,New York,US,42.88645,-78.87837,14202,America/New_York
1.145.11.176,1.145.11.183,1.145.0.0,Sydney,New South Wales,AU,-33.69828,150.93173,2155,Australia/Sydney
105.9.163.0,105.9.163.15,105.9.0.0,Cape Town,Western Cape,ZA,-33.92584,18.42322,7945,Africa/Johannesburg
101.138.241.178,101.138.241.179,101.138.0.0,Taipei,Taiwan,TW,25.04776,121.53185,,Asia/Taipei
106.193.55.88,106.193.55.91,106.193.0.0,Gulbarga,Karnataka,IN,17.33583,76.83757,585105,Asia/Kolkata
1.145.141.236,1.145.141.246,1.145.0.0,Melbourne,Victoria,AU,-37.8133,144.9839,3002,Australia/Melbourne
105.67.128.219,105.67.128.219,105.67.0.0,Casablanca,Casablanca-Settat,MA,33.58831,-7.61138,29640,Africa/Casablanca
1.187.55.182,1.187.55.182,1.187.0.0,Amarnāth,Maharashtra,IN,19.2,73.16667,421306,Asia/Kolkata
106.161.175.4,106.161.175.4,106.161.0.0,Nagano,Nagano,JP,36.5852,138.1809,388-8007,Asia/Tokyo
101.58.175.76,101.58.175.111,101.58.0.0,Palermo,Sicily,IT,38.1166,13.3636,90100,Europe/Rome
105.225.34.32,105.225.34.39,105.225.0.0,George,Western Cape,ZA,-33.9666,22.4499,6536,Africa/Johannesburg
101.189.130.94,101.189.130.94,101.189.0.0,Moranbah,Queensland,AU,-22.00163,148.04661,4744,Australia/Brisbane
104.57.53.0,104.57.53.255,104.57.0.0,Grambling,Louisiana,US,32.52765,-92.71404,71245,America/Chicago
106.193.25.157,106.193.25.157,106.193.0.0,Bengaluru,Karnataka,IN,12.97194,77.59369,560002,Asia/Kolkata
1.219.85.8,1.219.85.18,1.219.0.0,Seoul,Seoul,KR,37.566,126.9784,03141,Asia/Seoul
106.207.147.32,106.207.147.33,106.207.0.0,Govindgarh,Rajasthan,IN,27.50423,76.99938,301025,Asia/Kolkata
103.4.99.218,103.4.99.219,103.4.0.0,London,England,GB,51.50853,-0.12574,EC1A,Europe/London
106.206.123.68,106.206.123.69,106.206.0.0,Hassan,Karnataka,IN,13.00715,76.0962,573103,Asia/Kolkata
106.204.234.40,106.204.234.47,106.204.0.0,Nakodar,Punjab,IN,31.12586,75.47508,144010,Asia/Kolkata
1.145.95.176,1.145.95.177,1.145.0.0,Sydney,New South Wales,AU,-33.86785,151.20732,1001,Australia/Sydney
101.112.167.10,101.112.167.41,101.112.0.0,Sydney,New South Wales,AU,-33.81,150.96309,2145,Australia/Sydney
101.189.2.0,101.189.2.5,101.189.0.0,Perth,Western Australia,AU,-32.13531,115.851,6164,Australia/Perth
104.240.110.152,104.240.110.153,104.240.0.0,Carlinville,Illinois,US,39.27977,-89.88177,62626,America/Chicago
106.150.3.237,106.150.3.237,106.150.0.0,Sapporo,Hokkaido,JP,43.06667,141.35,065-0010,Asia/Tokyo
1.242.116.0,1.242.116.255,1.242.0.0,Anyang-si,Gyeonggi-do,KR,37.4055,126.9626,13938,Asia/Seoul
106.192.208.112,106.192.208.115,106.192.0.0,Pāonta Sāhib,Himachal Pradesh,IN,30.6156,77.63789,173029,Asia/Kolkata
101.189.66.30,101.189.66.103,101.189.0.0,Perth,Western Australia,AU,-32.0831,115.98238,6110,Australia/Perth
1.211.124.0,1.211.124.255,1.211.0.0,Gyeonggi-do,Gyeonggi-do,KR,37.6342,126.6853,10091,Asia/Seoul
105.101.154.0,105.101.154.255,105.101.0.0,Algiers,Algiers,DZ,36.7237,3.0273,16100,Africa/Algiers
1.38.54.0,1.38.55.255,1.38.0.0,Delhi,Delhi,IN,28.6921,77.2245,110054,Asia/Kolkata
106.161.209.178,106.161.209.178,106.161.0.0,Kyōtango,Kyoto,JP,35.60623,135.04429,627-0000,Asia/Tokyo
101.173.2.128,101.173.2.131,101.173.0.0,Millicent,South Australia,AU,-37.59389,140.34947,5280,Australia/Adelaide
102.26.224.64,102.26.224.127,102.26.0.0,As Sanad,Gafsa,TN,34.4628,9.26404,,Africa/Tunis
101.139.94.186,101.139.94.187,101.139.0.0,Neihu,Taiwan,TW,25.0815,121.58809,,Asia/Taipei
1.46.105.174,1.46.105.174,1.46.0.0,Nakhon Si Thammarat,Nakhon Si Thammarat,TH,8.43333,99.96667,80140,Asia/Bangkok
106.200.86.223,106.200.86.223,106.200.0.0,Malappuram,Kerala,IN,10.9468,76.02012,676553,Asia/Kolkata
104.219.141.0,104.219.141.63,104.219.0.0,Lytle,Texas,US,29.23329,-98.79641,78052,America/Chicago
106.203.104.13,106.203.104.15,106.203.0.0,Chennai,Tamil Nadu,IN,13.08784,80.27847,600001,Asia/Kolkata
103.215.240.136,103.215.240.151,103.215.0.0,Haldia,West Bengal,IN,22.06046,88.10975,721604,Asia/Kolkata
101.139.225.229,101.139.225.231,101.139.0.0,Taoyuan City,Taiwan,TW,24.99368,121.29696,,Asia/Taipei
101.177.25.52,101.177.25.53,101.177.0.0,Townsville,Queensland,AU,-19.28552,146.78998,4812,Australia/Brisbane
101.53.208.124,101.53.208.127,101.53.0.0,Ward,Marlborough,NZ,-42.0012,174.0077,7260,Pacific/Auckland
106.196.51.226,106.196.51.227,106.196.0.0,Rewāri,Haryana,IN,28.20293,76.45621,123021,Asia/Kolkata
105.136.35.160,105.136.35.175,105.136.0.0,Tangier,Tanger-Tetouan-Al Hoceima,MA,35.76727,-5.79975,90052,Africa/Casablanca
102.186.239.30,102.186.239.30,102.186.0.0,Hurghada,Red Sea,EG,27.25738,33.81291,,Africa/Cairo
101.177.227.30,101.177.227.33,101.177.0.0,Canberra,Australian Capital Territory,AU,-35.2091,149.1239,2911,Australia/Sydney
101.166.83.14,101.166.83.21,101.166.0.0,Sydney,New South Wales,AU,-33.6734,151.0312,2158,Australia/Sydney
104.223.125.0,104.223.125.255,104.223.0.0,Miami,Florida,US,25.7867,-80.18,33132,America/New_York
101.177.33.226,101.177.33.227,101.177.0.0,Cairns,Queensland,AU,-16.92366,145.76613,4870,Australia/Brisbane
1.42.4.0,1.42.4.2,1.42.0.0,Sydney,New South Wales,AU,-33.8713,151.222,1335,Australia/Sydney
106.203.7.251,106.203.7.255,106.203.0.0,Injambakkam,Tamil Nadu,IN,12.89,80.2313,600119,Asia/Kolkata
101.9.178.173,101.9.178.205,101.9.0.0,Kaohsiung,Takao,TW,22.61626,120.31333,,Asia/Taipei
101.138.16.184,101.138.16.191,101.138.0.0,Shulin,Taipei,TW,24.99085,121.42199,,Asia/Taipei
106.193.248.240,106.193.248.255,106.193.0.0,Rāhuri,Maharashtra,IN,19.39069,74.64979,413705,Asia/Kolkata
101.163.12.32,101.163.12.33,101.163.0.0,Twin Waters,Queensland,AU,-26.6217,152.93123,4560,Australia/Brisbane
1.219.82.208,1.219.82.209,1.219.0.0,Seoul,Seoul,KR,37.566,126.9784,03141,Asia/Seoul
1.10.214.74,1.10.214.77,1.10.0.0,Chumsaeng,Nakhon Sawan,TH,15.89152,100.30795,60120,Asia/Bangkok
1.123.12.186,1.123.12.187,1.123.0.0,Gladstone,Queensland,AU,-23.84852,151.25775,4680,Australia/Brisbane
103.190.170.32,103.190.170.162,103.190.0.0,Yogyakarta,Yogyakarta,ID,-7.80139,110.36472,,Asia/Jakarta
101.51.103.55,101.51.103.55,101.51.0.0,Bang Saphan,Prachuap Khiri Khan,TH,11.21259,99.51167,77140,Asia/Bangkok
101.183.218.0,101.183.218.255,101.183.0.0,Brisbane,Queensland,AU,-27.46794,153.02809,4000,Australia/Brisbane
103.51.151.4,103.51.151.5,103.51.0.0,Alīpur Duār,West Bengal,IN,26.4835,89.52286,736206,Asia/Kolkata
105.72.35.181,105.72.35.184,105.72.0.0,Casablanca,Casablanca-Settat,MA,33.58831,-7.61138,29640,Africa/Casablanca
106.197.147.32,106.197.147.43,106.197.0.0,Coimbatore,Tamil Nadu,IN,11.00555,76.96612,641011,Asia/Kolkata
105.250.180.176,105.250.180.255,105.250.0.0,Cape Town,Western Cape,ZA,-33.92584,18.42322,7945,Africa/Johannesburg
106.171.9.10,106.171.9.11,106.171.0.0,Hakone,Kanagawa,JP,35.18945,139.02649,250-0521,Asia/Tokyo
103.120.201.0,103.120.201.223,103.120.0.0,Sylhet,Sylhet,BD,24.9328,91.8739,3102,Asia/Dhaka
106.205.15.204,106.205.15.204,106.205.0.0,Lucknow,Uttar Pradesh,IN,26.9084,80.9505,226031,Asia/Kolkata
1.127.20.242,1.127.20.255,1.127.0.0,Perth,Western Australia,AU,-31.95224,115.8614,6000,Australia/Perth
106.205.113.16,106.205.113.31,106.205.0.0,Tiruppur,Tamil Nadu,IN,11.11541,77.35456,622502,Asia/Kolkata
1.33.42.136,1.33.42.143,1.33.0.0,Niigata,Niigata,JP,37.8795,139.0231,950-0953,Asia/Tokyo
105.93.165.110,105.93.165.255,105.93.0.0,Cairo,Cairo,EG,30.06263,31.24967,,Africa/Cairo
102.27.138.224,102.27.138.255,102.27.0.0,Midoun,Medenine Governorate,TN,33.80813,10.99228,,Africa/Tunis
102.169.10.0,102.169.10.2,102.169.0.0,Sfax,Sfax Governorate,TN,34.74056,10.76028,,Africa/Tunis
1.20.52.136,1.20.52.136,1.20.0.0,Chiang Rai,Chiang Rai,TH,19.90858,99.8325,57000,Asia/Bangkok
1.2.229.118,1.2.229.119,1.2.0.0,Amnat Charoen,Amnat Charoen,TH,15.85851,104.62883,37000,Asia/Bangkok
106.161.124.204,106.161.124.207,106.161.0.0,Toyota,Aichi,JP,35.0904,137.1671,471-0021,Asia/Tokyo
106.200.62.124,106.200.62.127,106.200.0.0,Cochin,Kerala,IN,9.93988,76.26022,682507,Asia/Kolkata
101.175.16.8,101.175.16.15,101.175.0.0,Numeralla,New South Wales,AU,-36.16667,149.33333,2630,Australia/Sydney
106.154.81.99,106.154.81.103,106.154.0.0,Tokyo,Tokyo,JP,35.6827,139.6673,164-0014,Asia/Tokyo
105.149.205.64,105.149.206.255,105.149.0.0,Casablanca,Casablanca-Settat,MA,33.58831,-7.61138,29640,Africa/Casablanca
106.154.135.174,106.154.135.180,106.154.0.0,Osaka,Ōsaka,JP,34.69374,135.50218,543-0062,Asia/Tokyo
100.10.68.19,100.10.68.19,100.10.0.0,Scituate,Massachusetts,US,42.19593,-70.72587,02066,America/New_York
1.146.115.56,1.146.115.59,1.146.0.0,Melbourne,Victoria,AU,-37.814,144.96332,3000,Australia/Melbourne
106.130.44.194,106.130.44.194,106.130.0.0,Fukuoka,Fukuoka,JP,33.6,130.41667,812-0024,Asia/Tokyo
106.204.228.96,106.204.228.103,106.204.0.0,Chandīgarh,Chandigarh,IN,30.7325,76.7341,160036,Asia/Kolkata
1.53.126.11,1.53.126.16,1.53.0.0,Ho Chi Minh City,Ho Chi Minh,VN,10.82302,106.62965,71606,Asia/Ho_Chi_Minh
106.193.6.90,106.193.6.91,106.193.0.0,Davangere,Karnataka,IN,14.46693,75.92694,577005,Asia/Kolkata
1.233.123.0,1.233.124.255,1.233.0.0,Seoul,Seoul,KR,37.55,127.1256,05242,Asia/Seoul
102.29.88.0,102.29.88.127,102.29.0.0,Sfax,Sfax Governorate,TN,34.74056,10.76028,,Africa/Tunis
1.145.111.203,1.145.111.203,1.145.0.0,Newcastle,New South Wales,AU,-32.9125,151.7652,2294,Australia/Sydney
105.55.136.128,105.55.136.191,105.55.0.0,Kerugoya,Kirinyaga,KE,-0.49887,37.28031,,Africa/Nairobi
101.184.60.36,101.184.60.41,101.184.0.0,Sydney,New South Wales,AU,-33.86785,151.20732,1001,Australia/Sydney
101.183.57.0,101.183.57.63,101.183.0.0,Millers Forest,New South Wales,AU,-32.75,151.7,2324,Australia/Sydney
1.159.91.182,1.159.91.183,1.159.0.0,Bendigo,Victoria,AU,-36.75818,144.28024,3550,Australia/Melbourne
104.205.78.100,104.205.78.103,104.205.0.0,Brooks,Alberta,CA,50.58341,-111.88509,T1R,America/Edmonton
106.194.129.48,106.194.129.49,106.194.0.0,Khetia,Maharashtra,IN,21.67124,74.58535,451881,Asia/Kolkata
105.112.98.156,105.112.98.161,105.112.0.0,Benin City,Edo,NG,6.33815,5.62575,,Africa/Lagos
106.156.57.200,106.156.57.207,106.156.0.0,Yorii,Saitama,JP,36.1722,139.2134,369-0214,Asia/Tokyo
105.97.201.209,105.97.201.210,105.97.0.0,Sétif,Sétif,DZ,36.19112,5.41373,19034,Africa/Algiers
106.200.213.192,106.200.213.255,106.200.0.0,Ahmedabad,Gujarat,IN,23.0801,72.5718,382480,Asia/Kolkata
106.145.122.0,106.145.122.31,106.145.0.0,Hakodate,Hokkaido,JP,41.7978,140.7461,040-0081,Asia/Tokyo
102.26.189.0,102.26.189.223,102.26.0.0,Tunis,Tunis Governorate,TN,36.81897,10.16579,,Africa/Tunis
106.131.18.218,106.131.18.218,106.131.0.0,Nagoya,Aichi,JP,35.1796,136.9934,465-0015,Asia/Tokyo
1.146.70.124,1.146.70.125,1.146.0.0,Brisbane,Queensland,AU,-27.47826,152.98632,4066,Australia/Brisbane
106.194.158.169,106.194.158.169,106.194.0.0,Mākhjan,Maharashtra,IN,19.94397,76.93793,416704,Asia/Kolkata
106.181.219.56,106.181.219.57,106.181.0.0,Tokyo,Tokyo,JP,35.754,139.7065,173-0013,Asia/Tokyo
103.109.85.0,103.109.87.255,103.109.0.0,Borivli,Maharashtra,IN,19.1699,72.8504,400065,Asia/Kolkata
1.79.93.148,1.79.93.148,1.79.0.0,Kobe,Hyōgo,JP,34.6913,135.183,761-4146,Asia/Tokyo
1.47.227.253,1.47.227.254,1.47.0.0,Songkhla,Songkhla,TH,7.19882,100.5951,90120,Asia/Bangkok
106.204.93.44,106.204.93.45,106.204.0.0,Ludhiāna,Punjab,IN,30.91204,75.85379,141120,Asia/Kolkata
102.106.235.117,102.106.235.117,102.106.0.0,Sousse,Sousse Governorate,TN,35.82539,10.63699,,Africa/Tunis
1.187.134.18,1.187.134.21,1.187.0.0,Pune,Maharashtra,IN,18.51957,73.85535,411001,Asia/Kolkata
1.112.59.133,1.112.59.134,1.112.0.0,Osaka,Ōsaka,JP,34.7594,135.5451,533-0002,Asia/Tokyo
106.202.232.82,106.202.232.82,106.202.0.0,Solāpur,Maharashtra,IN,17.67152,75.91044,413222,Asia/Kolkata
1.53.249.151,1.53.249.151,1.53.0.0,Hanoi,Hanoi,VN,21.0245,105.84117,10000,Asia/Bangkok
101.136.135.186,101.136.135.187,101.136.0.0,Jiayi Shi,Taiwan,TW,23.47917,120.44889,,Asia/Taipei
104.28.198.122,104.28.198.130,104.28.0.0,Bremerton,Washington,US,47.5754,-122.6958,98312,America/Los_Angeles
1.1.243.73,1.1.243.74,1.1.0.0,Non Sung,Nakhon Ratchasima,TH,15.18014,102.25695,30160,Asia/Bangkok
1.123.39.136,1.123.39.143,1.123.0.0,Urraween,Queensland,AU,-25.29522,152.82206,4655,Australia/Brisbane
106.160.60.112,106.160.60.114,106.160.0.0,Kasama,Ibaraki,JP,36.38333,140.26667,309-1611,Asia/Tokyo
103.167.29.152,103.167.29.157,103.167.0.0,Siddipet,Telangana,IN,18.10483,78.84858,502301,Asia/Kolkata
1.112.63.94,1.112.63.95,1.112.0.0,Kumamoto,Kumamoto,JP,32.78,130.7038,860-0833,Asia/Tokyo
102.168.54.101,102.168.54.105,102.168.0.0,Sousse,Sousse Governorate,TN,35.82539,10.63699,,Africa/Tunis
106.197.215.52,106.197.215.76,106.197.0.0,Bengaluru,Karnataka,IN,12.97194,77.59369,560002,Asia/Kolkata
100.44.90.0,100.44.90.127,100.44.0.0,Farmingville,New York,US,40.83121,-73.02955,11738,America/New_York
101.108.176.68,101.108.176.68,101.108.0.0,Pua,Nan,TH,19.17503,100.91622,55120,Asia/Bangkok
104.247.130.131,104.247.130.131,104.247.0.0,Visalia,California,US,36.33023,-119.29206,93278,America/Los_Angeles
102.184.137.32,102.184.137.47,102.184.0.0,Port Said,Port Said,EG,31.26531,32.3019,,Africa/Cairo
1.179.185.64,1.179.185.95,1.179.0.0,Bangkok,Bangkok,TH,13.75398,100.50144,10200,Asia/Bangkok
106.157.211.112,106.157.211.119,106.157.0.0,Ōzu,Kumamoto,JP,32.8154,130.819,861-8031,Asia/Tokyo
1.251.213.16,1.251.213.17,1.251.0.0,Pohang,Gyeongsangbuk-do,KR,36.02917,129.36481,37707,Asia/Seoul
1.112.43.126,1.112.43.127,1.112.0.0,Fukuoka,Fukuoka,JP,33.5838,130.3241,819-0000,Asia/Tokyo
103.205.36.8,103.205.36.15,103.205.0.0,Bājitpur,Dhaka,BD,24.3491,90.9571,2326,Asia/Dhaka
100.41.8.168,100.41.8.190,100.41.0.0,Philadelphia,Pennsylvania,US,39.95238,-75.16362,19099,America/New_York
1.158.20.146,1.158.20.147,1.158.0.0,Deniliquin,New South Wales,AU,-35.53245,144.95364,2710,Australia/Sydney
103.22.176.0,103.22.179.255,103.22.0.0,Melbourne,Victoria,AU,-37.8183,144.9445,3008,Australia/Melbourne
106.128.89.134,106.128.89.134,106.128.0.0,Noda,Chiba,JP,35.9556,139.8572,278-0043,Asia/Tokyo
1.54.198.8,1.54.198.9,1.54.0.0,Đồng Hới,Quảng Bình,VN,17.46885,106.62226,20780,Asia/Bangkok
101.112.119.166,101.112.119.170,101.112.0.0,Sydney,New South Wales,AU,-33.69828,150.93173,2155,Australia/Sydney
1.146.224.92,1.146.224.93,1.146.0.0,Katanning,Western Australia,AU,-33.68787,117.5584,6317,Australia/Perth
102.129.139.162,102.129.139.163,102.129.0.0,Hat Yai,Songkhla,TH,7.00836,100.47668,90110,Asia/Bangkok
106.198.7.0,106.198.7.0,106.198.0.0,Tirukkoyilur,Tamil Nadu,IN,11.9753,79.3138,605755,Asia/Kolkata
103.68.178.210,103.68.178.210,103.68.0.0,Sydney,New South Wales,AU,-33.86785,151.20732,1001,Australia/Sydney
1.46.175.36,1.46.175.37,1.46.0.0,Tha Sala,Nakhon Si Thammarat,TH,8.66733,99.93078,80160,Asia/Bangkok
104.59.227.32,104.59.227.35,104.59.0.0,Riverton,Illinois,US,39.84422,-89.53954,62561,America/Chicago
101.174.17.24,101.174.17.31,101.174.0.0,Whyalla,South Australia,AU,-33.0229,137.53078,5608,Australia/Adelaide
1.112.99.236,1.112.99.237,1.112.0.0,Aizu-Wakamatsu,Fukushima,JP,37.4842,139.9047,965-0849,Asia/Tokyo
1.145.255.105,1.145.255.105,1.145.0.0,Boundary Bend,Victoria,AU,-34.72133,143.16481,3599,Australia/Melbourne
106.204.41.236,106.204.41.236,106.204.0.0,Rewāri,Haryana,IN,28.199,76.6183,123401,Asia/Kolkata
103.139.9.180,103.139.9.223,103.139.0.0,Pābna,Rajshahi Division,BD,24.0034,89.2493,6602,Asia/Dhaka
104.240.104.186,104.240.104.187,104.240.0.0,Shipman,Illinois,US,39.11755,-90.04427,62685,America/Chicago
106.128.88.136,106.128.88.137,106.128.0.0,Noda,Chiba,JP,35.9753,139.8651,278-0041,Asia/Tokyo
1.40.9.140,1.40.9.140,1.40.0.0,Moss Vale,New South Wales,AU,-34.55374,150.37115,2577,Australia/Sydney
106.141.36.0,106.141.37.255,106.141.0.0,Osaka,Ōsaka,JP,34.69374,135.50218,543-0062,Asia/Tokyo
102.158.12.252,102.158.12.255,102.158.0.0,Monastir,Monastir Governorate,TN,35.77799,10.82617,,Africa/Tunis
105.140.11.128,105.140.11.131,105.140.0.0,Tangier,Tanger-Tetouan-Al Hoceima,MA,35.76727,-5.79975,90052,Africa/Casablanca
102.152.171.69,102.152.171.69,102.152.0.0,Monastir,Monastir Governorate,TN,35.77799,10.82617,,Africa/Tunis
105.72.216.122,105.72.216.122,105.72.0.0,Sale,Rabat-Salé-Kénitra,MA,34.0531,-6.79846,11022,Africa/Casablanca
1.112.47.16,1.112.47.19,1.112.0.0,Nagoya,Aichi,JP,35.2238,136.876,452-0816,Asia/Tokyo
104.187.200.88,104.187.200.88,104.187.0.0,Lovelock,Nevada,US,40.17935,-118.47348,89419,America/Los_Angeles
1.46.41.129,1.46.41.129,1.46.0.0,Ban Ratsada,Phuket,TH,7.90963,98.40248,83120,Asia/Bangkok
105.185.187.41,105.185.187.46,105.185.0.0,East London,Eastern Cape,ZA,-33.01529,27.91162,5201,Africa/Johannesburg
104.44.210.144,104.44.210.159,104.44.0.0,Washington,Virginia,US,38.71345,-78.15944,22747,America/New_York
105.252.183.192,105.252.183.255,105.252.0.0,Piet Retief,Mpumalanga,ZA,-27,30.8,2383,Africa/Johannesburg
103.80.142.213,103.80.142.213,103.80.0.0,Legaspi,Bicol,PH,13.14125,123.74073,4500,Asia/Manila
101.57.1.158,101.57.1.158,101.57.0.0,Bordighera,Liguria,IT,43.78064,7.66451,18012,Europe/Rome
104.167.166.0,104.167.171.255,104.167.0.0,Northport,Alabama,US,33.22901,-87.57723,35476,America/Chicago
106.161.169.126,106.161.169.126,106.161.0.0,Utsunomiya,Tochigi,JP,36.5644,139.9184,321-0952,Asia/Tokyo
104.44.33.136,104.44.33.143,104.44.0.0,Frankfurt am Main,Hesse,DE,50.11552,8.68417,60306,Europe/Berlin
105.226.18.40,105.226.18.43,105.226.0.0,Ladybrand,Orange Free State,ZA,-29.19448,27.45739,9745,Africa/Johannesburg
1.47.75.147,1.47.75.167,1.47.0.0,Phra Pradaeng,Samut Prakan,TH,13.65855,100.53362,10130,Asia/Bangkok
105.82.105.116,105.82.105.123,105.82.0.0,Banī Suwayf,Beni Suweif,EG,29.07441,31.09785,,Africa/Cairo
103.88.58.40,103.88.58.69,103.88.0.0,Patna,Bihar,IN,25.5977,85.189,800026,Asia/Kolkata
100.35.2.0,100.35.3.254,100.35.0.0,Newark,New Jersey,US,40.73566,-74.17237,07102,America/New_York
103.192.117.136,103.192.117.136,103.192.0.0,Bānkura,West Bengal,IN,23.23241,87.0716,722152,Asia/Kolkata
102.158.62.40,102.158.62.47,102.158.0.0,Béja,Béja Governorate,TN,36.72564,9.18169,,Africa/Tunis
106.205.62.168,106.205.62.168,106.205.0.0,Raebareli,Uttar Pradesh,IN,26.07331,81.17021,229128,Asia/Kolkata
104.176.25.0,104.176.27.255,104.176.0.0,Acworth,Georgia,US,34.06635,-84.67837,30101,America/New_York
1.53.195.148,1.53.195.149,1.53.0.0,Pleiku,Gia Lai,VN,13.98333,108,61199,Asia/Ho_Chi_Minh
1.0.208.194,1.0.208.195,1.0.0.0,Krathum Baen,Samut Sakhon,TH,13.6533,100.25972,74110,Asia/Bangkok
1.53.95.20,1.53.95.23,1.53.0.0,Việt Trì,Phú Thọ,VN,21.32274,105.40198,35150,Asia/Bangkok
1.251.55.0,1.251.55.255,1.251.0.0,Daegu,Daegu,KR,35.8376,128.7097,42275,Asia/Seoul
103.143.235.150,103.143.235.151,103.143.0.0,Natore,Rajshahi Division,BD,24.41112,88.98673,6400,Asia/Dhaka
106.204.247.128,106.204.247.255,106.204.0.0,Ambāla,Haryana,IN,30.3876,76.80691,134007,Asia/Kolkata
102.170.224.139,102.170.224.140,102.170.0.0,Sousse,Sousse Governorate,TN,35.82539,10.63699,,Africa/Tunis
101.185.146.204,101.185.146.255,101.185.0.0,Perth,Western Australia,AU,-31.95224,115.8614,6000,Australia/Perth
106.148.211.0,106.148.211.127,106.148.0.0,Ueda,Nagano,JP,36.4044,138.2627,386-0013,Asia/Tokyo
102.185.29.70,102.185.29.70,102.185.0.0,Al Maḩallah al Kubrá,Gharbia,EG,30.97063,31.1669,,Africa/Cairo
101.178.209.10,101.178.209.10,101.178.0.0,Canberra,Australian Capital Territory,AU,-35.28346,149.12807,2600,Australia/Sydney
102.170.44.45,102.170.44.45,102.170.0.0,Sousse,Sousse Governorate,TN,35.82539,10.63699,,Africa/Tunis
1.20.190.200,1.20.190.215,1.20.0.0,Suphan Buri,Suphanburi,TH,14.47418,100.12218,72150,Asia/Bangkok
101.180.86.13,101.180.86.13,101.180.0.0,Failford,New South Wales,AU,-32.09177,152.44595,2430,Australia/Sydney
101.191.11.60,101.191.11.61,101.191.0.0,Newcastle,New South Wales,AU,-33.02476,151.65881,2280,Australia/Sydney
106.193.15.222,106.193.15.223,106.193.0.0,Mahālingpur,Karnataka,IN,16.3888,75.10873,587312,Asia/Kolkata
106.194.185.120,106.194.185.121,106.194.0.0,Sheopur,Madhya Pradesh,IN,25.66472,76.69616,476337,Asia/Kolkata
102.27.66.0,102.27.66.63,102.27.0.0,Ghardimaou,Jendouba Governorate,TN,36.44788,8.4413,,Africa/Tunis
1.40.147.224,1.40.147.255,1.40.0.0,Sydney,New South Wales,AU,-33.77697,150.89734,2148,Australia/Sydney
104.193.158.162,104.193.158.179,104.193.0.0,San Jose,California,US,37.3249,-121.9153,95126,America/Los_Angeles
101.51.180.38,101.51.180.41,101.51.0.0,Chum Phuang,Nakhon Ratchasima,TH,15.34861,102.74161,30270,Asia/Bangkok
1.254.31.0,1.254.31.127,1.254.0.0,Busan,Busan,KR,35.1562,129.1083,48259,Asia/Seoul
101.116.226.200,101.116.226.203,101.116.0.0,Gawler,South Australia,AU,-34.69876,138.67495,5113,Australia/Adelaide
1.109.63.160,1.109.63.255,1.109.0.0,Seoul,Seoul,KR,37.566,126.9784,03141,Asia/Seoul
102.49.234.192,102.49.234.255,102.49.0.0,Tit Mellil,Casablanca-Settat,MA,33.5581,-7.4865,29672,Africa/Casablanca
1.43.77.104,1.43.77.111,1.43.0.0,Lansdowne,New South Wales,AU,-31.78268,152.53474,2430,Australia/Sydney
106.161.252.20,106.161.252.21,106.161.0.0,Atsugi,Kanagawa,JP,35.4089,139.3504,243-0025,Asia/Tokyo
1.156.81.174,1.156.81.175,1.156.0.0,Sydney,New South Wales,AU,-33.87259,150.89076,2176,Australia/Sydney
1.125.24.46,1.125.24.47,1.125.0.0,Kingston South East,South Australia,AU,-36.83073,139.8522,5275,Australia/Adelaide
104.15.9.178,104.15.9.179,104.15.0.0,Liberal,Kansas,US,37.04308,-100.921,67901,America/Chicago
106.181.72.124,106.181.72.125,106.181.0.0,Tokyo,Tokyo,JP,35.6587,139.7377,106-0043,Asia/Tokyo
102.191.95.64,102.191.95.79,102.191.0.0,Qūş,Qena,EG,25.91544,32.76287,,Africa/Cairo
106.192.100.44,106.192.100.48,106.192.0.0,Una,Himachal Pradesh,IN,31.5432,76.5342,177202,Asia/Kolkata
101.137.235.238,101.137.235.242,101.137.0.0,Keelung,Taiwan,TW,25.13089,121.74094,,Asia/Taipei
104.9.159.48,104.9.159.61,104.9.0.0,Jacksonville,Florida,US,30.33218,-81.65565,32202,America/New_York
101.167.56.59,101.167.56.59,101.167.0.0,Cairns,Queensland,AU,-16.92366,145.76613,4870,Australia/Brisbane
102.189.61.50,102.189.61.55,102.189.0.0,Ţanţā,Gharbia,EG,30.78847,31.00192,,Africa/Cairo
105.204.235.200,105.204.235.200,105.204.0.0,Al Minyā,Minya,EG,28.09193,30.75813,,Africa/Cairo
102.173.234.240,102.173.234.255,102.173.0.0,Akouda,Sousse Governorate,TN,35.8691,10.5653,,Africa/Tunis
106.200.44.146,106.200.44.154,106.200.0.0,Thrissur,Kerala,IN,10.51667,76.21667,680001,Asia/Kolkata
106.206.2.38,106.206.2.38,106.206.0.0,Tirumala,Andhra Pradesh,IN,13.68333,79.35,517004,Asia/Kolkata
100.44.62.128,100.44.62.255,100.44.0.0,Oklahoma City,Oklahoma,US,35.4445,-97.5619,73108,America/Chicago
105.40.58.232,105.40.61.183,105.40.0.0,Cairo,Cairo,EG,30.06263,31.24967,,Africa/Cairo
1.200.82.252,1.200.82.255,1.200.0.0,Kaohsiung,Takao,TW,22.61626,120.31333,,Asia/Taipei
106.166.146.208,106.166.146.211,106.166.0.0,Sakata,Yamagata,JP,38.9025,139.846,998-0842,Asia/Tokyo
105.104.8.0,105.104.20.255,105.104.0.0,Annaba,Annaba,DZ,36.9,7.76667,23002,Africa/Algiers
100.44.187.128,100.44.187.255,100.44.0.0,Astoria,Oregon,US,46.18788,-123.83125,97103,America/Los_Angeles
1.112.58.194,1.112.58.195,1.112.0.0,Kagoshima,Kagoshima,JP,31.581,130.5131,890-0032,Asia/Tokyo
103.176.38.0,103.176.39.255,103.176.0.0,Bekasi,West Java,ID,-6.2349,106.9896,,Asia/Jakarta
101.136.249.40,101.136.249.41,101.136.0.0,Taichung,Taiwan,TW,24.1469,120.6839,,Asia/Taipei
105.143.131.222,105.143.131.222,105.143.0.0,Sale,Rabat-Salé-Kénitra,MA,34.1185,-6.7389,11023,Africa/Casablanca
104.129.106.112,104.129.106.115,104.129.0.0,Hanover,Ontario,CA,44.15009,-81.03303,N4N,America/Toronto
101.190.176.72,101.190.176.77,101.190.0.0,Sydney,New South Wales,AU,-33.86785,151.20732,1001,Australia/Sydney
101.51.67.160,101.51.67.207,101.51.0.0,Nakhon Ratchasima,Nakhon Ratchasima,TH,14.97066,102.10196,30280,Asia/Bangkok
106.197.143.69,106.197.143.69,106.197.0.0,Tirukkoyilur,Tamil Nadu,IN,11.9662,79.20259,605752,Asia/Kolkata
105.72.49.211,105.72.49.211,105.72.0.0,Sale,Rabat-Salé-Kénitra,MA,34.0531,-6.79846,11022,Africa/Casablanca
106.192.49.96,106.192.49.99,106.192.0.0,Fatehābād,Haryana,IN,29.51525,75.45554,125050,Asia/Kolkata
103.249.220.87,103.249.220.87,103.249.0.0,Belmont,Western Australia,AU,-31.9435,115.9255,6104,Australia/Perth
104.51.235.122,104.51.235.123,104.51.0.0,Ballwin,Missouri,US,38.59505,-90.54623,63022,America/Chicago
106.141.68.128,106.141.68.255,106.141.0.0,Motomachi,Hokkaido,JP,42.8822,141.5729,061-1413,Asia/Tokyo
105.93.244.156,105.93.244.158,105.93.0.0,Banī Suwayf,Beni Suweif,EG,29.07441,31.09785,,Africa/Cairo
106.196.115.84,106.196.115.87,106.196.0.0,Mohali,Punjab,IN,30.67995,76.72211,140308,Asia/Kolkata
101.51.34.169,101.51.34.169,101.51.0.0,Pakham,Buriram,TH,14.43817,102.72558,31170,Asia/Bangkok
101.190.100.130,101.190.100.135,101.190.0.0,Sydney,New South Wales,AU,-33.7301,150.903,2763,Australia/Sydney
101.116.224.144,101.116.224.147,101.116.0.0,Hobart,Tasmania,AU,-42.8288,147.27297,7010,Australia/Hobart
106.204.53.1,106.204.53.1,106.204.0.0,Mandholi Kalān,Haryana,IN,28.86792,75.60102,127046,Asia/Kolkata
105.205.14.234,105.205.15.79,105.205.0.0,Al Minyā,Minya,EG,28.09193,30.75813,,Africa/Cairo
104.14.87.66,104.14.87.67,104.14.0.0,Winnemucca,Nevada,US,40.97296,-117.73568,89445,America/Los_Angeles
1.2.165.108,1.2.165.111,1.2.0.0,Khanu Woralaksaburi,Kamphaeng Phet,TH,16.0617,99.86058,62130,Asia/Bangkok
1.44.49.128,1.44.49.255,1.44.0.0,Sydney,New South Wales,AU,-33.86785,151.20732,1001,Australia/Sydney
101.137.126.32,101.137.126.32,101.137.0.0,Tainan,Taiwan,TW,22.99083,120.21333,,Asia/Taipei
1.4.130.58,1.4.130.59,1.4.0.0,Changhan,Roi Et,TH,16.13873,103.60388,45000,Asia/Bangkok
1.10.233.126,1.10.233.127,1.10.0.0,Bang Bon,Bangkok,TH,13.66185,100.39567,10150,Asia/Bangkok
100.4.145.245,100.4.145.245,100.4.0.0,Salem,New York,US,43.1723,-73.32761,12865,America/New_York
106.200.9.214,106.200.9.215,106.200.0.0,Kuttampuzha,Kerala,IN,9.934,76.7566,685582,Asia/Kolkata
103.52.39.220,103.52.39.223,103.52.0.0,Guntur,Andhra Pradesh,IN,16.29974,80.45729,522438,Asia/Kolkata
1.145.85.120,1.145.85.121,1.145.0.0,Forster,New South Wales,AU,-32.18136,152.51715,2428,Australia/Sydney
101.181.88.230,101.181.88.239,101.181.0.0,Melbourne,Victoria,AU,-37.85667,144.61067,3024,Australia/Melbourne
106.181.177.192,106.181.177.192,106.181.0.0,Tokyo,Tokyo,JP,35.751,139.6541,179-0085,Asia/Tokyo
106.131.82.96,106.131.82.97,106.131.0.0,Tagawa,Fukuoka,JP,33.6364,130.7957,826-0021,Asia/Tokyo
1.1.228.88,1.1.228.88,1.1.0.0,Nakhon Ratchasima,Nakhon Ratchasima,TH,14.97066,102.10196,30280,Asia/Bangkok
1.6.52.160,1.6.52.175,1.6.0.0,Vandalūr,Tamil Nadu,IN,12.9293,80.034,600113,Asia/Kolkata
101.174.110.118,101.174.110.119,101.174.0.0,Wardell,New South Wales,AU,-28.9511,153.46189,2477,Australia/Sydney
1.55.183.92,1.55.183.95,1.55.0.0,Lấp Vò,Đồng Tháp,VN,10.36161,105.51924,81706,Asia/Ho_Chi_Minh
104.28.66.64,104.28.66.65,104.28.0.0,Fuyang,Anhui,CN,32.9,115.81667,,Asia/Shanghai
101.189.13.48,101.189.13.55,101.189.0.0,Perth,Western Australia,AU,-32.1461,116.0093,6992,Australia/Perth
104.151.32.247,104.151.32.255,104.151.0.0,Düsseldorf,North Rhine-Westphalia,DE,51.22172,6.77616,40210,Europe/Berlin
101.183.28.182,101.183.28.191,101.183.0.0,Brisbane,Queensland,AU,-27.46343,153.17913,4179,Australia/Brisbane
1.254.214.0,1.254.214.255,1.254.0.0,Goseong,Gyeongsangnam-do,KR,35.0882,128.0882,52516,Asia/Seoul
102.11.106.0,102.11.137.255,102.11.0.0,Alexandria,Alexandria,EG,31.20176,29.91582,,Africa/Cairo
101.108.59.224,101.108.59.247,101.108.0.0,Saraburi,Saraburi,TH,14.5521,100.9003,18000,Asia/Bangkok
1.33.41.95,1.33.41.95,1.33.0.0,Sendai,Miyagi,JP,38.26667,140.86667,980-0014,Asia/Tokyo
103.183.250.254,103.183.251.8,103.183.0.0,Jakarta,Jakarta,ID,-6.21462,106.84513,,Asia/Jakarta
104.160.220.144,104.160.220.223,104.160.0.0,Winnipeg,Manitoba,CA,49.8665,-97.0633,R2J,America/Winnipeg
102.182.61.248,102.182.61.255,102.182.0.0,Pretoria,Gauteng,ZA,-25.7317,28.3347,0170,Africa/Johannesburg
103.175.169.22,103.175.169.23,103.175.0.0,Rānīganj,West Bengal,IN,23.6164,87.13061,713322,Asia/Kolkata
106.202.192.128,106.202.192.255,106.202.0.0,Ahmadnagar,Maharashtra,IN,19.09457,74.73843,413201,Asia/Kolkata
105.231.153.0,105.231.153.255,105.231.0.0,Thika,Nairobi Area,KE,-1.03326,37.06933,,Africa/Nairobi
101.138.2.146,101.138.2.147,101.138.0.0,Nantou,Taiwan,TW,23.91566,120.66387,,Asia/Taipei
105.97.199.22,105.97.199.23,105.97.0.0,Sétif,Sétif,DZ,36.19112,5.41373,19034,Africa/Algiers
1.122.246.120,1.122.246.123,1.122.0.0,Busselton,Western Australia,AU,-33.65249,115.3455,6280,Australia/Perth
104.247.108.0,104.247.108.255,104.247.0.0,Los Angeles,California,US,34.05223,-118.24368,90009,America/Los_Angeles
102.173.15.182,102.173.15.183,102.173.0.0,Sfax,Sfax Governorate,TN,34.74056,10.76028,,Africa/Tunis
105.112.106.49,105.112.106.55,105.112.0.0,Lagos,Lagos,NG,6.45407,3.39467,,Africa/Lagos
104.28.125.20,104.28.125.24,104.28.0.0,Brisbane,Queensland,AU,-27.4679,153.0281,9007,Australia/Brisbane
1.52.164.48,1.52.164.52,1.52.0.0,Gò Dầu,Tây Ninh Province,VN,11.0885,106.26346,80706,Asia/Ho_Chi_Minh
102.168.133.116,102.168.133.116,102.168.0.0,Sousse,Sousse Governorate,TN,35.82539,10.63699,,Africa/Tunis
104.227.49.0,104.227.49.175,104.227.0.0,Buffalo,New York,US,42.88645,-78.87837,14202,America/New_York
106.192.77.96,106.192.77.101,106.192.0.0,Mandi,Himachal Pradesh,IN,31.59967,76.87968,175052,Asia/Kolkata
1.47.88.40,1.47.88.41,1.47.0.0,Bo Rai,Trat,TH,12.57283,102.53714,23140,Asia/Bangkok
101.185.190.240,101.185.190.243,101.185.0.0,Wickham,Western Australia,AU,-20.67474,117.13784,6720,Australia/Perth
1.179.245.112,1.179.245.127,1.179.0.0,Chiang Muan,Phayao,TH,18.88969,100.30589,55190,Asia/Bangkok
102.173.47.102,102.173.47.105,102.173.0.0,Sfax,Sfax Governorate,TN,34.74056,10.76028,,Africa/Tunis
101.191.164.208,101.191.164.208,101.191.0.0,Heddon Greta,New South Wales,AU,-32.82387,151.48597,2327,Australia/Sydney
101.118.59.216,101.118.59.229,101.118.0.0,Perth,Western Australia,AU,-31.8401,115.8961,6066,Australia/Perth
101.109.151.58,101.109.151.59,101.109.0.0,Pattaya,Chon Buri,TH,12.93333,100.88333,76130,Asia/Bangkok
104.195.207.112,104.195.207.119,104.195.0.0,Toronto,Ontario,CA,43.6496,-79.3833,M5H,America/Toronto
103.28.133.48,103.28.133.57,103.28.0.0,Kabul,Kabul,AF,34.52813,69.17233,,Asia/Kabul
104.3.20.112,104.3.21.255,104.3.0.0,Los Angeles,California,US,34.05223,-118.24368,90009,America/Los_Angeles
105.97.228.255,105.97.228.255,105.97.0.0,Sétif,Sétif,DZ,36.19112,5.41373,19034,Africa/Algiers
106.192.43.48,106.192.43.53,106.192.0.0,Shimla,Himachal Pradesh,IN,31.10442,77.16662,171003,Asia/Kolkata
106.203.75.182,106.203.75.182,106.203.0.0,Changanācheri,Kerala,IN,9.5167,76.7,686541,Asia/Kolkata
104.235.68.230,104.235.68.231,104.235.0.0,Freeport,Illinois,US,42.29669,-89.62123,61032,America/Chicago
1.10.234.68,1.10.234.68,1.10.0.0,Prachuap Khiri Khan,Prachuap Khiri Khan,TH,11.82098,99.7841,77000,Asia/Bangkok
102.109.76.150,102.109.76.154,102.109.0.0,Sousse,Sousse Governorate,TN,35.82539,10.63699,,Africa/Tunis
105.36.67.0,105.36.68.255,105.36.0.0,Cairo,Cairo,EG,30.06263,31.24967,,Africa/Cairo
101.51.236.5,101.51.236.5,101.51.0.0,Prasat,Surin,TH,14.64039,103.40447,31160,Asia/Bangkok
1.200.190.189,1.200.190.194,1.200.0.0,Kaohsiung,Takao,TW,22.61626,120.31333,,Asia/Taipei
1.20.219.22,1.20.219.22,1.20.0.0,Prathai,Nakhon Ratchasima,TH,15.53319,102.72283,30180,Asia/Bangkok
104.223.149.18,104.223.149.18,104.223.0.0,New York City,New York,US,40.71427,-74.00597,10004,America/New_York
103.173.0.0,103.173.1.255,103.173.0.0,Adelaide,South Australia,AU,-34.89803,138.67295,5073,Australia/Adelaide
102.42.140.80,102.42.140.95,102.42.0.0,Alexandria,Alexandria,EG,31.20176,29.91582,,Africa/Cairo
1.146.183.208,1.146.183.209,1.146.0.0,Geraldton,Western Australia,AU,-28.779,114.6146,6531,Australia/Perth
101.112.13.12,101.112.13.239,101.112.0.0,Sydney,New South Wales,AU,-33.761,150.78673,2760,Australia/Sydney
104.28.204.204,104.28.204.210,104.28.0.0,Huntington,New York,US,40.86815,-73.42568,11743,America/New_York
106.205.33.47,106.205.33.47,106.205.0.0,Kaimganj,Uttar Pradesh,IN,27.55441,79.33525,209502,Asia/Kolkata
1.146.1.204,1.146.1.207,1.146.0.0,Brisbane,Queensland,AU,-27.4101,153.0292,4031,Australia/Brisbane
105.243.196.212,105.243.196.215,105.243.0.0,Cape Town,Western Cape,ZA,-33.92584,18.42322,7945,Africa/Johannesburg
102.43.43.156,102.43.43.234,102.43.0.0,Alexandria,Alexandria,EG,31.20176,29.91582,,Africa/Cairo
106.206.127.162,106.206.127.163,106.206.0.0,Bengaluru,Karnataka,IN,12.97194,77.59369,560002,Asia/Kolkata
1.53.130.78,1.53.130.99,1.53.0.0,Hanoi,Hanoi,VN,21.0245,105.84117,10000,Asia/Bangkok
1.145.189.132,1.145.189.135,1.145.0.0,Traralgon South,Victoria,AU,-38.28994,146.5462,3844,Australia/Melbourne
104.14.86.61,104.14.86.61,104.14.0.0,Ely,Nevada,US,39.24744,-114.88863,89301,America/Los_Angeles
105.159.42.113,105.159.42.113,105.159.0.0,Oujda-Angad,Oriental,MA,34.68139,-1.90858,60350,Africa/Casablanca
105.72.212.50,105.72.212.95,105.72.0.0,Rabat,Rabat-Salé-Kénitra,MA,34.01325,-6.83255,12152,Africa/Casablanca
101.174.210.240,101.174.210.243,101.174.0.0,Sydney,New South Wales,AU,-33.86785,151.20732,1001,Australia/Sydney
103.199.108.0,103.199.110.255,103.199.0.0,Dhaka,Dhaka,BD,23.7104,90.40744,1000,Asia/Dhaka
1.145.255.40,1.145.255.40,1.145.0.0,Ballarat,Victoria,AU,-37.5662,143.8496,3353,Australia/Melbourne
102.187.80.224,102.187.80.247,102.187.0.0,Alexandria,Alexandria,EG,31.20176,29.91582,,Africa/Cairo
1.10.251.219,1.10.251.219,1.10.0.0,Bang Lamung,Chon Buri,TH,13.04704,100.92891,20150,Asia/Bangkok
104.28.57.51,104.28.57.52,104.28.0.0,Miquelon,Miquelon-Langlade,PM,47.0975,-56.38139,97500,America/Miquelon
106.205.13.53,106.205.13.53,106.205.0.0,Rasrā,Uttar Pradesh,IN,25.8534,83.93807,221701,Asia/Kolkata
1.187.32.171,1.187.32.171,1.187.0.0,Vagator,Goa,IN,15.58,73.7449,403509,Asia/Kolkata
105.82.5.156,105.82.5.159,105.82.0.0,Banī Suwayf,Beni Suweif,EG,29.07441,31.09785,,Africa/Cairo
1.145.75.198,1.145.75.198,1.145.0.0,Warnervale,New South Wales,AU,-33.26039,151.53083,2263,Australia/Sydney
1.157.154.27,1.157.154.38,1.157.0.0,Sydney,New South Wales,AU,-33.7757,151.03555,2118,Australia/Sydney
102.168.91.2,102.168.91.15,102.168.0.0,Sfax,Sfax Governorate,TN,34.74056,10.76028,,Africa/Tunis
103.82.101.112,103.82.101.115,103.82.0.0,Sardhana,Uttar Pradesh,IN,29.02446,77.632,250341,Asia/Kolkata
101.108.187.40,101.108.187.47,101.108.0.0,Nakhon Pathom,Nakhon Pathom,TH,13.8196,100.04427,73000,Asia/Bangkok
103.176.199.0,103.176.199.127,103.176.0.0,Jakarta,Jakarta,ID,-6.21462,106.84513,,Asia/Jakarta
1.215.138.120,1.215.138.121,1.215.0.0,Seoul,Seoul,KR,37.566,126.9784,03141,Asia/Seoul
1.145.38.0,1.145.38.3,1.145.0.0,Sydney,New South Wales,AU,-33.86785,151.20732,1001,Australia/Sydney
101.109.90.103,101.109.90.103,101.109.0.0,Hua Hin,Prachuap Khiri Khan,TH,12.57065,99.95876,77110,Asia/Bangkok
103.203.232.0,103.203.251.255,103.203.0.0,Delhi,Delhi,IN,28.65195,77.23149,110001,Asia/Kolkata
101.116.79.216,101.116.79.219,101.116.0.0,Hobart,Tasmania,AU,-42.85095,147.3039,7008,Australia/Hobart
101.188.205.96,101.188.205.151,101.188.0.0,Melbourne,Victoria,AU,-37.9211,145.2492,3178,Australia/Melbourne
103.249.71.0,103.249.71.255,103.249.0.0,El Pardo,Madrid,ES,40.51454,-3.77253,28048,Europe/Madrid
105.226.144.192,105.226.144.203,105.226.0.0,Cape Town,Western Cape,ZA,-33.8326,18.4632,7444,Africa/Johannesburg
102.157.86.112,102.157.86.127,102.157.0.0,Mennzel Bou Zelfa,Nabeul Governorate,TN,36.68312,10.58431,,Africa/Tunis
101.161.194.46,101.161.194.46,101.161.0.0,Nhill,Victoria,AU,-36.33333,141.65006,3418,Australia/Melbourne
101.178.57.168,101.178.57.175,101.178.0.0,Canberra,Australian Capital Territory,AU,-35.40233,149.0864,2903,Australia/Sydney
104.10.134.0,104.10.135.255,104.10.0.0,Daytona Beach,Florida,US,29.16,-81.0269,32119,America/New_York
101.137.110.220,101.137.110.223,101.137.0.0,Hualien City,Taiwan,TW,23.97694,121.60444,,Asia/Taipei
103.57.80.34,103.57.80.48,103.57.0.0,Bengaluru,Karnataka,IN,12.97194,77.59369,560002,Asia/Kolkata
102.154.164.128,102.154.164.191,102.154.0.0,Skanes,Monastir Governorate,TN,35.7749,10.79464,,Africa/Tunis
103.146.110.0,103.146.111.255,103.146.0.0,Delhi,Delhi,IN,28.65195,77.23149,110001,Asia/Kolkata
103.206.48.0,103.206.49.255,103.206.0.0,Dehra Dūn,Uttarakhand,IN,30.32443,78.03392,248001,Asia/Kolkata
1.147.73.130,1.147.73.131,1.147.0.0,Mount Gambier,South Australia,AU,-37.8318,140.77919,5290,Australia/Adelaide
104.241.142.70,104.241.142.107,104.241.0.0,Carleton Place,Ontario,CA,45.13341,-76.14938,K7C,America/Toronto
105.244.198.206,105.244.198.219,105.244.0.0,Welkom,Orange Free State,ZA,-27.97742,26.73506,9438,Africa/Johannesburg
106.206.123.190,106.206.123.191,106.206.0.0,Bengaluru,Karnataka,IN,12.97194,77.59369,560002,Asia/Kolkata
104.5.109.32,104.5.109.47,104.5.0.0,Greenville,Kentucky,US,37.20115,-87.17889,42345,America/Chicago
103.80.210.250,103.80.210.253,103.80.0.0,Ölgii,Bayan-Ölgiy,MN,48.96833,89.9625,,Asia/Hovd
102.171.12.250,102.171.12.255,102.171.0.0,Sfax,Sfax Governorate,TN,34.74056,10.76028,,Africa/Tunis
101.139.201.94,101.139.201.103,101.139.0.0,Taipei,Taiwan,TW,25.04776,121.53185,,Asia/Taipei
106.197.22.83,106.197.22.83,106.197.0.0,Thiruvananthapuram,Kerala,IN,8.4954,76.9305,695022,Asia/Kolkata
103.165.155.0,103.165.155.255,103.165.0.0,Tangerang,Banten,ID,-6.17806,106.63,,Asia/Jakarta
104.221.102.0,104.221.103.255,104.221.0.0,Montréal,Quebec,CA,45.5883,-73.5572,H1M,America/Toronto
1.172.164.224,1.172.164.255,1.172.0.0,Magong,Taiwan,TW,23.5654,119.58627,,Asia/Taipei
102.129.139.86,102.129.139.86,102.129.0.0,Kalasin,Kalasin,TH,16.43281,103.50658,46000,Asia/Bangkok
101.116.226.136,101.116.226.143,101.116.0.0,Adelaide,South Australia,AU,-35.02565,138.5901,5050,Australia/Adelaide
105.199.32.188,105.199.32.188,105.199.0.0,Arish,North Sinai,EG,31.13159,33.79844,,Africa/Cairo
104.28.155.82,104.28.155.83,104.28.0.0,Mendarda,Gujarat,IN,22.57523,72.67233,362037,Asia/Kolkata
103.210.254.64,103.210.254.69,103.210.0.0,Ambāla,Haryana,IN,30.36099,76.79782,134005,Asia/Kolkata
101.139.249.232,101.139.249.235,101.139.0.0,Puli,Taiwan,TW,23.96639,120.96952,,Asia/Taipei
102.159.42.16,102.159.42.23,102.159.0.0,Mahdia,Mahdia Governorate,TN,35.50472,11.06222,,Africa/Tunis
103.194.194.0,103.194.195.255,103.194.0.0,Bareilly,Uttar Pradesh,IN,28.36678,79.43167,243003,Asia/Kolkata
1.47.35.196,1.47.35.199,1.47.0.0,Surat Thani,Surat Thani,TH,9.1308,99.3628,84000,Asia/Bangkok
1.145.92.36,1.145.92.43,1.145.0.0,Bomaderry,New South Wales,AU,-34.84967,150.61093,2541,Australia/Sydney
106.205.135.118,106.205.135.123,106.205.0.0,Una,Himachal Pradesh,IN,31.5807,76.2101,177205,Asia/Kolkata
101.114.123.16,101.114.123.95,101.114.0.0,Sydney,New South Wales,AU,-33.7309,151.2929,2097,Australia/Sydney
103.246.82.128,103.246.82.159,103.246.0.0,Matsumoto,Nagano,JP,36.2097,137.9784,390-0825,Asia/Tokyo
101.51.222.43,101.51.222.57,101.51.0.0,Non Sung,Nakhon Ratchasima,TH,15.18014,102.25695,30160,Asia/Bangkok
1.23.116.215,1.23.116.223,1.23.0.0,Allahābād,Uttar Pradesh,IN,25.3828,81.861,212105,Asia/Kolkata
105.9.180.78,105.9.180.83,105.9.0.0,George,Western Cape,ZA,-33.9666,22.4499,6536,Africa/Johannesburg
102.169.179.2,102.169.179.2,102.169.0.0,Tunis,Tunis Governorate,TN,36.81897,10.16579,,Africa/Tunis
104.28.201.1,104.28.201.5,104.28.0.0,Monrovia,Montserrado,LR,6.30054,-10.7969,,Africa/Monrovia
106.202.244.227,106.202.244.239,106.202.0.0,Lucknow,Uttar Pradesh,IN,26.83928,80.92313,226004,Asia/Kolkata
106.181.115.204,106.181.115.204,106.181.0.0,Nagoya,Aichi,JP,35.1564,136.9135,460-0012,Asia/Tokyo
105.246.56.64,105.246.56.67,105.246.0.0,Centurion,Gauteng,ZA,-25.85385,28.19365,0051,Africa/Johannesburg
106.202.188.4,106.202.188.7,106.202.0.0,Burhānpur,Madhya Pradesh,IN,21.30868,76.23026,450331,Asia/Kolkata
104.2.129.0,104.2.129.255,104.2.0.0,Hurtsboro,Alabama,US,32.2965,-84.9972,36856,America/Chicago
105.158.56.151,105.158.56.161,105.158.0.0,Casablanca,Casablanca-Settat,MA,33.58831,-7.61138,29640,Africa/Casablanca
101.165.18.0,101.165.18.95,101.165.0.0,Melbourne,Victoria,AU,-37.97943,145.0756,3194,Australia/Melbourne
106.161.150.170,106.161.150.170,106.161.0.0,Tsunagi,Kumamoto,JP,32.2916,130.5413,869-6306,Asia/Tokyo
1.47.232.92,1.47.232.93,1.47.0.0,Tak Bai,Narathiwat,TH,6.25947,102.05461,96110,Asia/Bangkok
101.181.73.84,101.181.73.87,101.181.0.0,Maddingley,Victoria,AU,-37.68518,144.43245,3340,Australia/Melbourne
103.183.204.198,103.183.204.198,103.183.0.0,Dombivli,Maharashtra,IN,19.21667,73.08333,421201,Asia/Kolkata
101.50.254.184,101.50.254.191,101.50.0.0,Hakodate,Hokkaido,JP,41.8385,140.7963,041-0833,Asia/Tokyo
105.249.68.190,105.249.68.191,105.249.0.0,Port Elizabeth,Eastern Cape,ZA,-33.9667,25.5833,6215,Africa/Johannesburg
101.180.95.243,101.180.95.243,101.180.0.0,Cobar,New South Wales,AU,-31.49666,145.83439,2835,Australia/Sydney
1.20.228.240,1.20.228.247,1.20.0.0,Su-ngai Kolok,Narathiwat,TH,6.02977,101.96586,96120,Asia/Bangkok
104.28.116.176,104.28.116.177,104.28.0.0,Thousand Oaks,California,US,34.1948,-118.8232,91362,America/Los_Angeles
106.203.210.151,106.203.210.151,106.203.0.0,Bhopāl,Madhya Pradesh,IN,23.25469,77.40289,464993,Asia/Kolkata
1.2.235.68,1.2.235.71,1.2.0.0,Nakhon Si Thammarat,Nakhon Si Thammarat,TH,8.43333,99.96667,80140,Asia/Bangkok
102.85.166.64,102.85.166.127,102.85.0.0,Kapchorwa,Eastern Region,UG,1.40096,34.45038,,Africa/Kampala
101.182.214.46,101.182.214.47,101.182.0.0,Twin Waters,Queensland,AU,-26.63422,153.08114,4564,Australia/Brisbane
1.145.87.210,1.145.87.211,1.145.0.0,Albion Park Rail,New South Wales,AU,-34.56634,150.79177,2527,Australia/Sydney
106.161.200.236,106.161.200.240,106.161.0.0,Fukayachō,Saitama,JP,36.1931,139.266,366-0819,Asia/Tokyo
102.185.215.206,102.185.215.208,102.185.0.0,Zagazig,Sharqia,EG,30.58768,31.502,,Africa/Cairo
104.178.30.0,104.178.31.255,104.178.0.0,Columbus,Ohio,US,39.96118,-82.99879,43215,America/New_York
104.247.136.59,104.247.136.59,104.247.0.0,Parlier,California,US,36.61162,-119.52707,93648,America/Los_Angeles
101.176.149.230,101.176.149.231,101.176.0.0,Sydney,New South Wales,AU,-33.86785,151.20732,1001,Australia/Sydney
104.186.100.0,104.186.100.127,104.186.0.0,Wichita,Kansas,US,37.6899,-97.3355,67202,America/Chicago
104.192.152.32,104.192.152.47,104.192.0.0,Vulcan,Alberta,CA,50.40008,-113.25189,T1V,America/Edmonton
106.154.139.213,106.154.139.213,106.154.0.0,Hiratsuka,Kanagawa,JP,35.32785,139.33735,254-0052,Asia/Tokyo
106.161.195.21,106.161.195.23,106.161.0.0,Osaka,Ōsaka,JP,34.6427,135.4832,557-0062,Asia/Tokyo
100.46.205.192,100.46.205.255,100.46.0.0,Austin,Texas,US,30.1876,-97.7472,78744,America/Chicago
1.43.77.0,1.43.77.15,1.43.0.0,Newcastle,New South Wales,AU,-32.9071,151.7518,2297,Australia/Sydney
106.196.102.248,106.196.102.253,106.196.0.0,Ludhiāna,Punjab,IN,30.8975,75.9316,141015,Asia/Kolkata
104.130.120.160,104.130.120.160,104.130.0.0,San Antonio,Texas,US,29.4969,-98.4032,78218,America/Chicago
1.10.192.30,1.10.192.31,1.10.0.0,Chai Buri,Surat Thani,TH,8.46222,99.07631,84210,Asia/Bangkok
103.140.82.0,103.140.83.255,103.140.0.0,Dhaka,Dhaka,BD,23.726,90.4251,1217,Asia/Dhaka
1.41.218.175,1.41.218.255,1.41.0.0,Sydney,New South Wales,AU,-33.77697,150.89734,2148,Australia/Sydney
104.235.149.36,104.235.149.44,104.235.0.0,Carbondale,Illinois,US,37.72727,-89.21675,62901,America/Chicago
101.161.128.238,101.161.128.239,101.161.0.0,Sydney,New South Wales,AU,-33.8524,151.1549,1470,Australia/Sydney
101.137.116.118,101.137.116.121,101.137.0.0,Yongkang,Taiwan,TW,23.02444,120.25556,,Asia/Taipei
104.44.23.68,104.44.23.68,104.44.0.0,San Antonio,Texas,US,29.42412,-98.49363,78205,America/Chicago
106.203.105.198,106.203.105.199,106.203.0.0,Naduvannūr,Kerala,IN,11.46367,75.7139,673620,Asia/Kolkata
102.170.226.48,102.170.226.53,102.170.0.0,Sfax,Sfax Governorate,TN,34.74056,10.76028,,Africa/Tunis
103.116.100.0,103.116.103.255,103.116.0.0,Hanoi,Hanoi,VN,21.0245,105.84117,10000,Asia/Bangkok
101.174.176.112,101.174.176.119,101.174.0.0,Adelaide,South Australia,AU,-34.85946,138.61918,5085,Australia/Adelaide
106.193.22.57,106.193.22.57,106.193.0.0,Bellary,Karnataka,IN,15.14205,76.92398,583101,Asia/Kolkata
106.197.144.28,106.197.144.31,106.197.0.0,Vriddhāchalam,Tamil Nadu,IN,11.5183,79.32411,606001,Asia/Kolkata
1.209.240.144,1.209.240.156,1.209.0.0,Seoul,Seoul,KR,37.566,126.9784,03141,Asia/Seoul
101.183.146.180,101.183.146.190,101.183.0.0,Townsville,Queensland,AU,-19.26639,146.80569,4810,Australia/Brisbane
101.191.31.240,101.191.31.241,101.191.0.0,Bellbridge,Victoria,AU,-36.09742,147.06172,3691,Australia/Sydney
105.82.3.149,105.82.3.152,105.82.0.0,Banī Suwayf,Beni Suweif,EG,29.07441,31.09785,,Africa/Cairo
106.206.48.19,106.206.48.32,106.206.0.0,Bengaluru,Karnataka,IN,12.97194,77.59369,560002,Asia/Kolkata
1.131.253.0,1.131.253.255,1.131.0.0,Melbourne,Victoria,AU,-37.814,144.96332,3000,Australia/Melbourne
101.138.203.216,101.138.203.235,101.138.0.0,Taoyuan City,Taiwan,TW,24.99368,121.29696,,Asia/Taipei
102.5.234.128,102.5.240.255,102.5.0.0,Nairobi,Nairobi Area,KE,-1.28333,36.81667,,Africa/Nairobi
103.81.227.116,103.81.227.117,103.81.0.0,Sefton,Canterbury,NZ,-43.25,172.66667,7445,Pacific/Auckland
101.167.11.176,101.167.11.207,101.167.0.0,Townsville,Queensland,AU,-19.26639,146.80569,4810,Australia/Brisbane
106.160.42.224,106.160.42.255,106.160.0.0,Minami-Alps,Yamanashi,JP,35.5804,138.4733,400-0415,Asia/Tokyo
103.254.129.0,103.254.129.255,103.254.0.0,Mysore,Karnataka,IN,12.3465,76.6335,570016,Asia/Kolkata
1.52.108.112,1.52.108.131,1.52.0.0,Ho Chi Minh City,Ho Chi Minh,VN,10.82302,106.62965,71606,Asia/Ho_Chi_Minh
101.174.225.216,101.174.225.223,101.174.0.0,Sydney,New South Wales,AU,-33.86785,151.20732,1001,Australia/Sydney
104.151.72.96,104.151.72.97,104.151.0.0,Frankfurt am Main,Hesse,DE,50.11552,8.68417,60306,Europe/Berlin
101.182.177.48,101.182.177.63,101.182.0.0,Melbourne,Victoria,AU,-37.83385,144.95945,3205,Australia/Melbourne
103.78.169.0,103.78.169.255,103.78.0.0,Mumbai,Maharashtra,IN,19.07283,72.88261,400070,Asia/Kolkata
104.238.36.0,104.238.36.11,104.238.0.0,New York City,New York,US,40.71427,-74.00597,10004,America/New_York
102.110.215.201,102.110.215.202,102.110.0.0,Sfax,Sfax Governorate,TN,34.74056,10.76028,,Africa/Tunis
1.145.129.102,1.145.129.103,1.145.0.0,Strahan,Tasmania,AU,-42.15194,145.32733,7468,Australia/Hobart
104.96.177.61,104.96.177.62,104.96.0.0,Reston,Virginia,US,38.96872,-77.3411,20190,America/New_York
101.191.173.40,101.191.173.47,101.191.0.0,Newcastle,New South Wales,AU,-32.92953,151.7801,2300,Australia/Sydney
103.189.130.96,103.189.130.223,103.189.0.0,Kolkata,West Bengal,IN,22.7101,88.3167,700004,Asia/Kolkata
104.28.199.27,104.28.199.32,104.28.0.0,Nouakchott,,MR,18.08581,-15.9785,,Africa/Nouakchott
1.158.217.80,1.158.217.87,1.158.0.0,Nelshaby,South Australia,AU,-33.12612,138.11051,5540,Australia/Adelaide
106.207.139.86,106.207.139.86,106.207.0.0,Būndi,Rajasthan,IN,25.43855,75.63735,323026,Asia/Kolkata
102.42.65.192,102.42.65.255,102.42.0.0,Cairo,Cairo,EG,30.06263,31.24967,,Africa/Cairo
101.186.193.110,101.186.193.243,101.186.0.0,Melbourne,Victoria,AU,-37.8596,144.743,3027,Australia/Melbourne
106.205.222.203,106.205.222.207,106.205.0.0,Dhandhuka,Gujarat,IN,23.23442,72.46295,382465,Asia/Kolkata
101.137.209.108,101.137.209.111,101.137.0.0,Douliu,Taiwan,TW,23.70944,120.54333,,Asia/Taipei
103.239.224.0,103.239.227.255,103.239.0.0,Qingdao,Shandong,CN,36.06488,120.38042,,Asia/Shanghai
102.190.6.176,102.190.6.191,102.190.0.0,Port Said,Port Said,EG,31.26531,32.3019,,Africa/Cairo
101.167.97.24,101.167.97.25,101.167.0.0,Townsville,Queensland,AU,-19.26639,146.80569,4810,Australia/Brisbane
106.193.30.95,106.193.30.99,106.193.0.0,Mysore,Karnataka,IN,12.29791,76.63925,570028,Asia/Kolkata
1.1.245.74,1.1.245.74,1.1.0.0,Non Sung,Nakhon Ratchasima,TH,15.18014,102.25695,30160,Asia/Bangkok
101.161.202.62,101.161.202.79,101.161.0.0,Melbourne,Victoria,AU,-37.97943,145.0756,3194,Australia/Melbourne
105.191.97.85,105.191.97.85,105.191.0.0,Rabat,Rabat-Salé-Kénitra,MA,34.01325,-6.83255,12152,Africa/Casablanca
106.193.23.76,106.193.23.79,106.193.0.0,Ponnampet,Karnataka,IN,12.2058,75.9869,571254,Asia/Kolkata
101.137.46.204,101.137.46.205,101.137.0.0,Shulin,Taipei,TW,24.99085,121.42199,,Asia/Taipei
103.220.104.0,103.220.107.255,103.220.0.0,Hangzhou,Zhejiang,CN,30.29365,120.16142,,Asia/Shanghai
102.51.38.0,102.51.39.31,102.51.0.0,Marrakesh,Marrakesh-Safi,MA,31.63416,-7.99994,40152,Africa/Casablanca
101.175.78.192,101.175.78.239,101.175.0.0,Sydney,New South Wales,AU,-33.94338,151.1221,2207,Australia/Sydney
1.145.111.194,1.145.111.195,1.145.0.0,Sydney,New South Wales,AU,-33.6829,151.29345,2102,Australia/Sydney
101.139.159.254,101.139.159.254,101.139.0.0,Chang-hua,Taiwan,TW,24.07327,120.56276,,Asia/Taipei
101.161.8.114,101.161.8.114,101.161.0.0,Campbelltown,New South Wales,AU,-34.04484,150.75101,2567,Australia/Sydney
102.139.229.0,102.139.230.127,102.139.0.0,Abidjan,Abidjan,CI,5.35444,-4.00167,,Africa/Abidjan
106.206.230.199,106.206.230.199,106.206.0.0,Majītha,Punjab,IN,31.4844,74.77898,143302,Asia/Kolkata
104.247.147.100,104.247.147.101,104.247.0.0,Auberry,California,US,36.9938,-119.5268,93651,America/Los_Angeles
106.171.21.40,106.171.21.41,106.171.0.0,Tokyo,Tokyo,JP,35.6895,139.69171,101-8656,Asia/Tokyo
101.181.170.214,101.181.170.215,101.181.0.0,Mildura,Victoria,AU,-34.18551,142.16251,3502,Australia/Melbourne
1.100.91.240,1.100.91.247,1.100.0.0,Gunsan,Jeollabuk-do,KR,35.97861,126.71139,54022,Asia/Seoul
101.128.128.146,101.128.128.151,101.128.0.0,Hiroshima,Hiroshima,JP,34.4,132.45,730-0011,Asia/Tokyo
103.78.72.27,103.78.72.180,103.78.0.0,Jakarta,Jakarta,ID,-6.21462,106.84513,,Asia/Jakarta
106.143.60.16,106.143.60.31,106.143.0.0,Honmachi,Kumamoto,JP,32.5351,130.5875,866-0011,Asia/Tokyo
101.51.222.132,101.51.222.255,101.51.0.0,Non Sung,Nakhon Ratchasima,TH,15.18014,102.25695,30160,Asia/Bangkok
103.147.81.64,103.147.81.95,103.147.0.0,Baturaja,South Sumatra,ID,-4.12891,104.16695,,Asia/Jakarta
105.68.211.6,105.68.211.6,105.68.0.0,Casablanca,Casablanca-Settat,MA,33.58831,-7.61138,29640,Africa/Casablanca
106.157.100.0,106.157.100.255,106.157.0.0,Koshigaya,Saitama,JP,35.9148,139.7894,343-0025,Asia/Tokyo
1.53.60.35,1.53.60.35,1.53.0.0,Uyen Hung,Gia Lai,VN,11.08416,106.78834,30813,Asia/Ho_Chi_Minh
106.197.168.238,106.197.168.239,106.197.0.0,Neyveli,Tamil Nadu,IN,11.60066,79.33259,607303,Asia/Kolkata
104.180.169.0,104.180.169.255,104.180.0.0,Compton,California,US,33.8748,-118.2402,90220,America/Los_Angeles
102.170.166.226,102.170.166.226,102.170.0.0,Sousse,Sousse Governorate,TN,35.82539,10.63699,,Africa/Tunis
1.146.70.229,1.146.70.229,1.146.0.0,Boyne Island,Queensland,AU,-23.94829,151.35336,4680,Australia/Brisbane
1.157.208.46,1.157.208.47,1.157.0.0,Bright,Victoria,AU,-36.72998,146.95978,3741,Australia/Melbourne
101.165.39.48,101.165.39.255,101.165.0.0,Brisbane,Queensland,AU,-27.45617,153.05917,4171,Australia/Brisbane
105.68.200.7,105.68.200.9,105.68.0.0,Sale,Rabat-Salé-Kénitra,MA,34.0531,-6.79846,11022,Africa/Casablanca
106.171.2.232,106.171.2.235,106.171.0.0,Kariya,Aichi,JP,34.98333,136.98333,479-0805,Asia/Tokyo
105.71.19.242,105.71.19.243,105.71.0.0,Rabat,Rabat-Salé-Kénitra,MA,34.01325,-6.83255,12152,Africa/Casablanca
1.47.171.148,1.47.171.148,1.47.0.0,Songkhla,Songkhla,TH,7.19882,100.5951,90120,Asia/Bangkok
105.225.244.200,105.225.244.207,105.225.0.0,Port Elizabeth,Eastern Cape,ZA,-33.99167,25.56667,6070,Africa/Johannesburg
106.204.139.128,106.204.139.131,106.204.0.0,Sonīpat,Haryana,IN,28.99478,77.01937,131001,Asia/Kolkata
106.171.23.162,106.171.23.163,106.171.0.0,Chikushino-shi,Fukuoka,JP,33.484,130.5311,818-0084,Asia/Tokyo
101.137.151.240,101.137.151.240,101.137.0.0,Taichung,Taiwan,TW,24.1469,120.6839,,Asia/Taipei
1.20.147.48,1.20.147.49,1.20.0.0,Sawi,Chumphon,TH,10.1905,99.0905,86000,Asia/Bangkok
102.152.185.90,102.152.185.90,102.152.0.0,Sousse,Sousse Governorate,TN,35.82539,10.63699,,Africa/Tunis
1.156.35.39,1.156.35.39,1.156.0.0,Sydney,New South Wales,AU,-33.9038,151.1398,2203,Australia/Sydney
1.145.36.132,1.145.36.134,1.145.0.0,Sydney,New South Wales,AU,-33.71287,151.11117,2076,Australia/Sydney
1.32.81.0,1.32.81.127,1.32.0.0,Kuala Lipis,Pahang,MY,4.1842,102.0468,27207,Asia/Kuala_Lumpur
101.175.10.96,101.175.10.99,101.175.0.0,Mulbring,New South Wales,AU,-32.90476,151.48508,2323,Australia/Sydney
101.128.177.90,101.128.177.91,101.128.0.0,Sendai,Miyagi,JP,38.26667,140.86667,980-0014,Asia/Tokyo
106.197.151.80,106.197.151.80,106.197.0.0,Puducherry,Puducherry,IN,11.93381,79.82979,605007,Asia/Kolkata
104.186.98.0,104.186.99.255,104.186.0.0,Salina,Kansas,US,38.8237,-97.6421,67401,America/Chicago
101.165.99.64,101.165.99.255,101.165.0.0,Brisbane,Queensland,AU,-27.4599,152.9818,4065,Australia/Brisbane
104.183.212.64,104.183.212.127,104.183.0.0,Woodland,California,US,38.67852,-121.7733,95695,America/Los_Angeles
105.159.36.114,105.159.36.144,105.159.0.0,Rabat,Rabat-Salé-Kénitra,MA,34.01325,-6.83255,12152,Africa/Casablanca
101.138.247.230,101.138.247.231,101.138.0.0,Kaohsiung,Takao,TW,22.61626,120.31333,,Asia/Taipei
104.10.145.0,104.10.145.255,104.10.0.0,Milwaukee,Wisconsin,US,42.9959,-87.9944,53219,America/Chicago
103.165.15.160,103.165.15.161,103.165.0.0,Mārkāpur,Andhra Pradesh,IN,15.73534,79.26848,523264,Asia/Kolkata
101.165.241.64,101.165.241.127,101.165.0.0,Brisbane,Queensland,AU,-27.4957,153.05925,4151,Australia/Brisbane
102.157.145.64,102.157.145.127,102.157.0.0,Tunis,Tunis Governorate,TN,36.81897,10.16579,,Africa/Tunis
1.157.190.72,1.157.190.72,1.157.0.0,Forster,New South Wales,AU,-32.18136,152.51715,2428,Australia/Sydney
1.53.218.168,1.53.218.172,1.53.0.0,Diên Khánh,Khánh Hòa,VN,12.2549,109.09332,57506,Asia/Ho_Chi_Minh
102.168.228.210,102.168.228.211,102.168.0.0,Sfax,Sfax Governorate,TN,34.74056,10.76028,,Africa/Tunis
102.173.60.205,102.173.60.205,102.173.0.0,Sousse,Sousse Governorate,TN,35.82539,10.63699,,Africa/Tunis
1.156.39.124,1.156.39.127,1.156.0.0,Albion Park Rail,New South Wales,AU,-34.56634,150.79177,2527,Australia/Sydney
106.205.29.148,106.205.29.149,106.205.0.0,Mubarakpur,Uttar Pradesh,IN,25.48098,81.85148,229412,Asia/Kolkata
106.202.18.220,106.202.18.221,106.202.0.0,Govardhan,Uttar Pradesh,IN,27.49658,77.46263,281502,Asia/Kolkata
104.12.90.74,104.12.90.122,104.12.0.0,Ardmore,Oklahoma,US,34.17426,-97.14363,73403,America/Chicago
101.180.32.210,101.180.32.211,101.180.0.0,Mount Frome,New South Wales,AU,-32.6,149.63333,2850,Australia/Sydney
1.20.9.8,1.20.9.11,1.20.0.0,Tak Bai,Narathiwat,TH,6.25,102.0333,96000,Asia/Bangkok
105.88.178.176,105.88.178.191,105.88.0.0,Cairo,Cairo,EG,30.06263,31.24967,,Africa/Cairo
101.181.226.0,101.181.226.255,101.181.0.0,Melbourne,Victoria,AU,-37.92165,145.06645,3165,Australia/Melbourne
1.229.152.0,1.229.152.255,1.229.0.0,Seoul,Seoul,KR,37.6586,127.0289,01388,Asia/Seoul
101.137.249.195,101.137.249.195,101.137.0.0,Douliu,Taiwan,TW,23.70944,120.54333,,Asia/Taipei
101.191.56.206,101.191.56.207,101.191.0.0,Batlow,New South Wales,AU,-35.51987,148.14727,2730,Australia/Sydney
1.2.226.120,1.2.226.120,1.2.0.0,Pathum Ratchawongsa,Amnat Charoen,TH,15.89224,104.90563,37110,Asia/Bangkok
103.74.186.25,103.74.186.42,103.74.0.0,Melbourne,Victoria,AU,-37.814,144.96332,3000,Australia/Melbourne
101.185.227.176,101.185.227.189,101.185.0.0,Perth,Western Australia,AU,-31.93605,115.83805,6007,Australia/Perth
101.177.15.14,101.177.15.15,101.177.0.0,Atherton,Queensland,AU,-17.26864,145.47522,4883,Australia/Brisbane
106.192.153.121,106.192.153.121,106.192.0.0,Fatehābād,Haryana,IN,29.51525,75.45554,125050,Asia/Kolkata
106.206.54.249,106.206.54.249,106.206.0.0,Hoskote,Karnataka,IN,13.0108,77.7494,560033,Asia/Kolkata
106.193.7.245,106.193.7.246,106.193.0.0,Mysore,Karnataka,IN,12.3394,76.5729,570018,Asia/Kolkata
106.194.29.104,106.194.29.111,106.194.0.0,Bāngarmau,Uttar Pradesh,IN,26.8912,80.21149,209871,Asia/Kolkata
101.189.35.88,101.189.35.113,101.189.0.0,Perth,Western Australia,AU,-32.1461,116.0093,6992,Australia/Perth
101.116.33.180,101.116.33.184,101.116.0.0,Melbourne,Victoria,AU,-37.6366,144.8919,3059,Australia/Melbourne
101.113.253.96,101.113.253.103,101.113.0.0,Canberra,Australian Capital Territory,AU,-35.2091,149.1239,2911,Australia/Sydney
1.20.186.36,1.20.186.37,1.20.0.0,Na Yai Am,Chanthaburi,TH,12.78153,101.82256,22160,Asia/Bangkok
101.180.81.160,101.180.81.183,101.180.0.0,Sydney,New South Wales,AU,-33.7833,150.9333,1730,Australia/Sydney
101.185.220.224,101.185.220.227,101.185.0.0,Kambalda West,Western Australia,AU,-31.20169,121.6306,6442,Australia/Perth
102.185.249.60,102.185.249.62,102.185.0.0,Zagazig,Sharqia,EG,30.58768,31.502,,Africa/Cairo
106.200.79.121,106.200.79.121,106.200.0.0,Neyyāttinkara,Kerala,IN,8.371,77.0028,695007,Asia/Kolkata
1.52.170.2,1.52.170.34,1.52.0.0,Ho Chi Minh City,Ho Chi Minh,VN,10.82302,106.62965,71606,Asia/Ho_Chi_Minh
106.169.75.0,106.169.75.127,106.169.0.0,Tokyo,Tokyo,JP,35.691,139.7679,101-0047,Asia/Tokyo
106.203.224.206,106.203.224.206,106.203.0.0,Varanasi,Uttar Pradesh,IN,25.3171,82.9751,221106,Asia/Kolkata
101.176.99.96,101.176.99.97,101.176.0.0,Ballarat,Victoria,AU,-37.5662,143.8496,3353,Australia/Melbourne
105.252.53.128,105.252.53.255,105.252.0.0,Durban,KwaZulu-Natal,ZA,-29.8579,31.0292,4001,Africa/Johannesburg
106.193.44.220,106.193.44.220,106.193.0.0,Mysore,Karnataka,IN,12.2667,76.6833,570004,Asia/Kolkata
101.136.100.88,101.136.100.89,101.136.0.0,Fengyuan,Taiwan,TW,24.25,120.71694,,Asia/Taipei
1.46.200.121,1.46.200.121,1.46.0.0,Ban Ko Lan,Chon Buri,TH,12.92419,100.78794,76130,Asia/Bangkok
103.190.76.0,103.190.76.0,103.190.0.0,Semarang,Central Java,ID,-6.99306,110.42083,,Asia/Jakarta
101.112.182.68,101.112.182.139,101.112.0.0,Sydney,New South Wales,AU,-33.81,150.96309,2145,Australia/Sydney
102.221.158.128,102.221.159.255,102.221.0.0,Edenvale,Gauteng,ZA,-26.14095,28.15247,1609,Africa/Johannesburg
105.242.131.212,105.242.131.213,105.242.0.0,Cape Town,Western Cape,ZA,-33.92584,18.42322,7945,Africa/Johannesburg
106.204.138.41,106.204.138.41,106.204.0.0,Bhiwāni,Haryana,IN,28.87812,76.13721,127031,Asia/Kolkata
106.183.78.0,106.183.78.31,106.183.0.0,Ōme,Tokyo,JP,35.78389,139.24306,321-3534,Asia/Tokyo
1.10.163.138,1.10.163.147,1.10.0.0,Sam Chai,Kalasin,TH,16.86322,103.54106,46140,Asia/Bangkok
102.185.91.242,102.185.91.242,102.185.0.0,Zagazig,Sharqia,EG,30.58768,31.502,,Africa/Cairo
102.190.37.168,102.190.38.127,102.190.0.0,Cairo,Cairo,EG,30.06263,31.24967,,Africa/Cairo
104.132.67.0,104.132.67.255,104.132.0.0,London,England,GB,51.50853,-0.12574,EC1A,Europe/London
1.0.95.164,1.0.95.167,1.0.0.0,Yamaguchi,Yamaguchi,JP,34.18333,131.46667,800-0336,Asia/Tokyo
102.172.211.18,102.172.211.23,102.172.0.0,Sfax,Sfax Governorate,TN,34.74056,10.76028,,Africa/Tunis
106.203.41.239,106.203.41.239,106.203.0.0,Tiruchirappalli,Tamil Nadu,IN,10.8155,78.69651,620012,Asia/Kolkata
106.206.145.116,106.206.145.119,106.206.0.0,Deoli,Rajasthan,IN,24.96351,76.13974,325001,Asia/Kolkata
103.151.64.48,103.151.64.125,103.151.0.0,Sydney,New South Wales,AU,-33.86785,151.20732,1001,Australia/Sydney
106.167.98.0,106.167.98.255,106.167.0.0,Kawasaki,Kanagawa,JP,35.5775,139.4796,215-0027,Asia/Tokyo
105.37.208.96,105.37.208.127,105.37.0.0,Quţūr,Gharbia,EG,30.97225,30.95614,,Africa/Cairo
106.129.233.105,106.129.233.105,106.129.0.0,Isahaya,Nagasaki,JP,32.836,130.0604,854-0043,Asia/Tokyo
102.141.176.0,102.141.176.255,102.141.0.0,Johannesburg,Gauteng,ZA,-26.05,27.9667,2172,Africa/Johannesburg
106.206.68.236,106.206.68.236,106.206.0.0,Bengaluru,Karnataka,IN,12.97194,77.59369,560002,Asia/Kolkata
103.43.179.0,103.43.179.255,103.43.0.0,Sydney,New South Wales,AU,-33.74872,151.28088,2099,Australia/Sydney
1.158.115.200,1.158.115.201,1.158.0.0,Charles Sturt University,New South Wales,AU,-35.06075,147.35424,2678,Australia/Sydney
102.115.200.0,102.115.200.255,102.115.0.0,Quatre Bornes,Plaines Wilhems,MU,-20.26381,57.4791,,Indian/Mauritius
1.55.29.192,1.55.29.207,1.55.0.0,Hanoi,Hanoi,VN,21.0245,105.84117,10000,Asia/Bangkok
104.226.195.96,104.226.195.111,104.226.0.0,Rochester,New York,US,43.286,-77.6843,14646,America/New_York
103.219.47.92,103.219.47.95,103.219.0.0,Kāliyāganj,West Bengal,IN,25.63442,88.32665,733129,Asia/Kolkata
1.112.120.134,1.112.120.134,1.112.0.0,Numazu,Shizuoka,JP,35.12,138.864,410-0041,Asia/Tokyo
1.42.11.200,1.42.11.207,1.42.0.0,Bundabah,New South Wales,AU,-32.71795,152.0764,2317,Australia/Sydney
100.41.18.160,100.41.18.171,100.41.0.0,Boston,Massachusetts,US,42.35843,-71.05977,02108,America/New_York
106.160.177.64,106.160.177.67,106.160.0.0,Shimonoseki,Yamaguchi,JP,33.9619,130.9435,750-0001,Asia/Tokyo
103.154.88.0,103.154.88.3,103.154.0.0,Bandung,West Java,ID,-6.92222,107.60694,,Asia/Jakarta
101.174.136.4,101.174.136.5,101.174.0.0,Sydney,New South Wales,AU,-33.7958,151.2746,2094,Australia/Sydney
101.174.13.110,101.174.13.110,101.174.0.0,Kingston South East,South Australia,AU,-36.83073,139.8522,5275,Australia/Adelaide
103.139.192.232,103.139.192.247,103.139.0.0,Jakarta,Jakarta,ID,-6.21462,106.84513,,Asia/Jakarta
106.194.27.152,106.194.27.159,106.194.0.0,Kādīpur,Uttar Pradesh,IN,26.16779,82.37028,228145,Asia/Kolkata
101.191.213.200,101.191.213.209,101.191.0.0,Sydney,New South Wales,AU,-33.9588,150.8542,2174,Australia/Sydney
104.222.29.156,104.222.29.232,104.222.0.0,Phoenix,Arizona,US,33.44838,-112.07404,85001,America/Phoenix
101.185.106.118,101.185.106.119,101.185.0.0,Barmera,South Australia,AU,-34.25562,140.46147,5345,Australia/Adelaide
103.180.73.16,103.180.73.31,103.180.0.0,Rājahmundry,Andhra Pradesh,IN,16.91091,81.40132,534112,Asia/Kolkata
1.146.238.171,1.146.238.175,1.146.0.0,Perth,Western Australia,AU,-31.9125,115.81473,6017,Australia/Perth
101.108.210.169,101.108.210.169,101.108.0.0,Buri Ram,Buriram,TH,14.99433,103.10392,31180,Asia/Bangkok
101.184.165.201,101.184.165.207,101.184.0.0,Sydney,New South Wales,AU,-33.897,151.1367,2130,Australia/Sydney
101.175.163.244,101.175.163.245,101.175.0.0,Gelorup,Western Australia,AU,-33.42425,115.64094,6230,Australia/Perth
102.173.192.20,102.173.192.20,102.173.0.0,Sfax,Sfax Governorate,TN,34.74056,10.76028,,Africa/Tunis
104.201.122.128,104.201.122.143,104.201.0.0,Chester,New York,US,41.36259,-74.27126,10918,America/New_York
102.173.229.219,102.173.229.219,102.173.0.0,Sfax,Sfax Governorate,TN,34.74056,10.76028,,Africa/Tunis
106.161.173.147,106.161.173.151,106.161.0.0,Saitama,Saitama,JP,35.8698,139.6725,336-0931,Asia/Tokyo
106.200.213.160,106.200.213.171,106.200.0.0,Ahmedabad,Gujarat,IN,23.02579,72.58727,380001,Asia/Kolkata
106.171.9.240,106.171.9.241,106.171.0.0,Fukuoka,Fukuoka,JP,33.6021,130.3913,810-0071,Asia/Tokyo
102.50.217.90,102.50.217.91,102.50.0.0,Inezgane,Souss-Massa,MA,30.35535,-9.53639,86150,Africa/Casablanca
106.207.163.89,106.207.163.91,106.207.0.0,Kāman,Rajasthan,IN,27.65791,77.26908,321022,Asia/Kolkata
102.181.154.104,102.181.154.191,102.181.0.0,Khartoum,Khartoum,SD,15.55177,32.53241,,Africa/Khartoum
106.181.106.56,106.181.106.57,106.181.0.0,Nagahama,Shiga,JP,35.3808,136.2585,526-0068,Asia/Tokyo
101.182.156.4,101.182.156.7,101.182.0.0,Alexandra Headland,Queensland,AU,-26.67154,153.10058,4572,Australia/Brisbane
106.206.84.131,106.206.84.131,106.206.0.0,Raybag,Karnataka,IN,16.49178,74.77391,591213,Asia/Kolkata
106.161.111.130,106.161.111.130,106.161.0.0,Gifu-shi,Gifu,JP,35.4349,136.7178,502-0926,Asia/Tokyo
101.58.72.228,101.58.72.231,101.58.0.0,Siena,Tuscany,IT,43.31822,11.33064,53100,Europe/Rome
104.250.179.102,104.250.179.104,104.250.0.0,Temple City,California,US,34.10723,-118.05785,91780,America/Los_Angeles
104.180.38.176,104.180.38.176,104.180.0.0,Liberal,Kansas,US,37.04308,-100.921,67901,America/Chicago
106.161.171.198,106.161.171.199,106.161.0.0,Toyama,Toyama,JP,36.7056,137.2321,930-0842,Asia/Tokyo
1.187.50.123,1.187.50.123,1.187.0.0,Ahmadnagar,Maharashtra,IN,19.18767,74.78842,414601,Asia/Kolkata
106.192.77.164,106.192.77.173,106.192.0.0,Ambāla,Haryana,IN,30.36099,76.79782,134005,Asia/Kolkata
102.171.52.210,102.171.52.217,102.171.0.0,Sfax,Sfax Governorate,TN,34.74056,10.76028,,Africa/Tunis
101.167.20.164,101.167.20.167,101.167.0.0,Bluewater,Queensland,AU,-19.18157,146.5582,4818,Australia/Brisbane
106.204.29.36,106.204.29.37,106.204.0.0,Pinjaur,Haryana,IN,30.7987,76.9182,134105,Asia/Kolkata
1.4.138.175,1.4.138.175,1.4.0.0,Dan Sai,Loei,TH,17.28011,101.14686,42120,Asia/Bangkok
103.245.194.158,103.245.194.159,103.245.0.0,Hyderabad,Sindh,PK,25.39242,68.37366,71500,Asia/Karachi
104.28.125.29,104.28.125.30,104.28.0.0,Wollongong,New South Wales,AU,-34.48985,150.8954,2505,Australia/Sydney
1.159.79.88,1.159.79.95,1.159.0.0,Melbourne,Victoria,AU,-37.8717,145.02205,3161,Australia/Melbourne
106.192.44.120,106.192.44.120,106.192.0.0,Kharkhauda,Haryana,IN,28.87953,77.0185,131103,Asia/Kolkata
102.171.41.66,102.171.41.67,102.171.0.0,Sousse,Sousse Governorate,TN,35.82539,10.63699,,Africa/Tunis
106.195.101.194,106.195.101.205,106.195.0.0,Agra,Uttar Pradesh,IN,27.18333,78.01667,282005,Asia/Kolkata
105.242.85.16,105.242.85.23,105.242.0.0,Alberton,Gauteng,ZA,-26.2333,28.1333,1451,Africa/Johannesburg
105.246.158.193,105.246.158.193,105.246.0.0,Cape Town,Western Cape,ZA,-33.92584,18.42322,7945,Africa/Johannesburg
102.155.14.84,102.155.14.85,102.155.0.0,Kebili,Kebili Governorate,TN,33.70439,8.96903,,Africa/Tunis
103.240.204.12,103.240.204.42,103.240.0.0,Ahmedabad,Gujarat,IN,23.0801,72.5718,382480,Asia/Kolkata
101.185.96.136,101.185.96.139,101.185.0.0,Kadina,South Australia,AU,-33.96495,137.71634,5554,Australia/Adelaide
104.235.64.56,104.235.64.83,104.235.0.0,Princeton,Illinois,US,41.36809,-89.46481,61356,America/Chicago
103.171.133.0,103.171.133.255,103.171.0.0,Pune,Maharashtra,IN,18.5148,73.8358,411004,Asia/Kolkata
101.190.145.87,101.190.145.87,101.190.0.0,Fingal Bay,New South Wales,AU,-32.77265,152.07777,2316,Australia/Sydney
106.197.139.8,106.197.139.9,106.197.0.0,Injambakkam,Tamil Nadu,IN,12.89,80.2313,600119,Asia/Kolkata
101.167.4.72,101.167.4.72,101.167.0.0,Mackay,Queensland,AU,-21.15345,149.16554,9943,Australia/Brisbane
104.239.102.169,104.239.102.211,104.239.0.0,Amsterdam,North Holland,NL,52.37403,4.88969,1012,Europe/Amsterdam
104.235.142.100,104.235.142.134,104.235.0.0,Carbondale,Illinois,US,37.6704,-89.2778,62903,America/Chicago
104.223.157.11,104.223.157.11,104.223.0.0,Los Angeles,California,US,34.05223,-118.24368,90009,America/Los_Angeles
102.106.244.0,102.106.244.1,102.106.0.0,Monastir,Monastir Governorate,TN,35.77799,10.82617,,Africa/Tunis
102.7.215.160,102.7.215.255,102.7.0.0,Sagana,Kirinyaga,KE,-0.66806,37.20875,,Africa/Nairobi
101.161.132.214,101.161.132.215,101.161.0.0,Sydney,New South Wales,AU,-33.6514,151.134,2080,Australia/Sydney
102.109.72.71,102.109.72.71,102.109.0.0,Sousse,Sousse Governorate,TN,35.82539,10.63699,,Africa/Tunis
105.55.100.144,105.55.100.159,105.55.0.0,Nairobi,Nairobi Area,KE,-1.28333,36.81667,,Africa/Nairobi
101.137.207.82,101.137.207.82,101.137.0.0,Tainan,Taiwan,TW,22.99083,120.21333,,Asia/Taipei
106.181.221.182,106.181.221.182,106.181.0.0,Osaka,Ōsaka,JP,34.672,135.4988,542-0086,Asia/Tokyo
101.112.201.89,101.112.201.89,101.112.0.0,Albion Park Rail,New South Wales,AU,-34.56634,150.79177,2527,Australia/Sydney
101.183.33.208,101.183.33.217,101.183.0.0,Newcastle,New South Wales,AU,-32.9193,151.73565,2292,Australia/Sydney
106.181.199.118,106.181.199.118,106.181.0.0,Fukuoka,Fukuoka,JP,33.5512,130.3301,814-0165,Asia/Tokyo
103.118.52.150,103.118.52.151,103.118.0.0,Ganzhou,Jiangxi,CN,25.84664,114.9326,,Asia/Shanghai
1.156.33.4,1.156.33.7,1.156.0.0,Albury,New South Wales,AU,-36.07482,146.92401,2640,Australia/Sydney
1.20.252.45,1.20.252.47,1.20.0.0,Yala,Yala,TH,6.53995,101.28128,95000,Asia/Bangkok
102.169.249.131,102.169.249.132,102.169.0.0,Sousse,Sousse Governorate,TN,35.82539,10.63699,,Africa/Tunis
106.201.96.60,106.201.96.63,106.201.0.0,Bengaluru,Karnataka,IN,12.97194,77.59369,560002,Asia/Kolkata
1.187.17.179,1.187.17.179,1.187.0.0,Dombivli,Maharashtra,IN,19.21667,73.08333,421201,Asia/Kolkata
104.188.130.248,104.188.130.251,104.188.0.0,Jackson,Mississippi,US,32.29876,-90.18481,39201,America/Chicago
1.156.209.204,1.156.209.238,1.156.0.0,Brisbane,Queensland,AU,-27.4903,153.1284,4153,Australia/Brisbane
106.206.165.116,106.206.165.119,106.206.0.0,Jodhpur,Rajasthan,IN,26.26841,73.00594,342001,Asia/Kolkata
105.45.73.128,105.45.73.223,105.45.0.0,Cairo,Cairo,EG,30.06263,31.24967,,Africa/Cairo
101.190.188.20,101.190.188.23,101.190.0.0,Sydney,New South Wales,AU,-33.81,150.96309,2145,Australia/Sydney
101.139.139.184,101.139.139.191,101.139.0.0,Taichung,Taiwan,TW,24.1469,120.6839,,Asia/Taipei
103.73.192.0,103.73.192.255,103.73.0.0,Serang,Banten,ID,-6.11528,106.15417,,Asia/Jakarta
105.191.77.52,105.191.77.55,105.191.0.0,Rabat,Rabat-Salé-Kénitra,MA,34.01325,-6.83255,12152,Africa/Casablanca
1.101.78.0,1.101.78.127,1.101.0.0,Seoul,Seoul,KR,37.566,126.9784,03141,Asia/Seoul
106.198.98.105,106.198.98.105,106.198.0.0,Kāraikkudi,Tamil Nadu,IN,10.0801,78.7782,630002,Asia/Kolkata
103.60.215.28,103.60.215.29,103.60.0.0,Hyderābād,Telangana,IN,17.38405,78.45636,500001,Asia/Kolkata
105.252.116.0,105.252.116.31,105.252.0.0,Himeville,KwaZulu-Natal,ZA,-29.74675,29.51361,3237,Africa/Johannesburg
104.240.172.64,104.240.172.65,104.240.0.0,Troy,Ohio,US,40.0395,-84.20328,45373,America/New_York
101.1.133.84,101.1.133.87,101.1.0.0,Matsuyama,Ehime,JP,33.8479,132.7531,790-0065,Asia/Tokyo
104.157.134.212,104.157.134.255,104.157.0.0,Kitchener,Ontario,CA,43.4646,-80.4467,N2B,America/Toronto
106.180.55.248,106.180.55.255,106.180.0.0,Kisarazu,Chiba,JP,35.384,139.9216,292-0067,Asia/Tokyo
105.68.250.35,105.68.250.35,105.68.0.0,Casablanca,Casablanca-Settat,MA,33.58831,-7.61138,29640,Africa/Casablanca
103.255.251.252,103.255.251.255,103.255.0.0,Hobart,Tasmania,AU,-42.89335,147.317,7004,Australia/Hobart
1.235.181.0,1.235.181.255,1.235.0.0,Yongsan-dong,Seoul,KR,37.4947,127.0385,06248,Asia/Seoul
104.44.239.117,104.44.239.121,104.44.0.0,London,England,GB,51.50853,-0.12574,EC1A,Europe/London
101.164.86.0,101.164.86.255,101.164.0.0,Sydney,New South Wales,AU,-33.74872,151.28088,2099,Australia/Sydney
101.109.7.232,101.109.7.239,101.109.0.0,Pattaya,Chon Buri,TH,12.93333,100.88333,76130,Asia/Bangkok
103.149.240.72,103.149.240.79,103.149.0.0,Noorabad,Khyber Pakhtunkhwa,PK,34.2883,71.8973,23164,Asia/Karachi
101.185.197.194,101.185.197.195,101.185.0.0,Dongara,Western Australia,AU,-29.25818,114.93276,6525,Australia/Perth
1.55.196.129,1.55.196.135,1.55.0.0,Biên Hòa,Đồng Nai,VN,10.94469,106.82432,76199,Asia/Ho_Chi_Minh
105.44.62.128,105.44.62.159,105.44.0.0,Al-'Ubūr,Qalyubia,EG,30.22886,31.48149,,Africa/Cairo
106.161.163.22,106.161.163.23,106.161.0.0,Niigata,Niigata,JP,37.8568,138.9281,950-2181,Asia/Tokyo
101.175.18.6,101.175.18.63,101.175.0.0,Sydney,New South Wales,AU,-33.7,151.1,1635,Australia/Sydney
101.137.70.83,101.137.70.85,101.137.0.0,Shulin,Taipei,TW,24.99085,121.42199,,Asia/Taipei
106.166.237.0,106.166.237.255,106.166.0.0,Kōfu,Yamanashi,JP,35.6815,138.5773,400-0015,Asia/Tokyo
106.161.177.60,106.161.177.61,106.161.0.0,Itami,Hyōgo,JP,34.787,135.4352,664-0835,Asia/Tokyo
1.20.24.189,1.20.24.191,1.20.0.0,Bang Na,Bangkok,TH,13.66744,100.64206,10260,Asia/Bangkok
102.189.185.80,102.189.185.87,102.189.0.0,Banī Suwayf,Beni Suweif,EG,29.07441,31.09785,,Africa/Cairo
106.197.243.36,106.197.243.37,106.197.0.0,Doddaballapura,Karnataka,IN,12.87402,77.6258,560105,Asia/Kolkata
102.158.37.0,102.158.37.31,102.158.0.0,Monastir,Monastir Governorate,TN,35.77799,10.82617,,Africa/Tunis
101.113.77.174,101.113.77.174,101.113.0.0,Canberra,Australian Capital Territory,AU,-35.3488,149.08972,2606,Australia/Sydney
106.205.240.203,106.205.240.203,106.205.0.0,Rājkot,Gujarat,IN,22.2344,70.819,360022,Asia/Kolkata
106.193.28.226,106.193.28.227,106.193.0.0,Shimoga,Karnataka,IN,13.93157,75.56791,577203,Asia/Kolkata
101.165.226.218,101.165.226.218,101.165.0.0,Moe,Victoria,AU,-38.17828,146.26099,3825,Australia/Melbourne
1.159.20.24,1.159.20.27,1.159.0.0,Mildura,Victoria,AU,-34.18551,142.16251,3502,Australia/Melbourne
103.10.134.160,103.10.134.215,103.10.0.0,Uppal Kalan,Telangana,IN,17.40577,78.55911,500039,Asia/Kolkata
1.109.95.218,1.109.95.223,1.109.0.0,Naju,Jeollanam-do,KR,35.0292,126.7175,58248,Asia/Seoul
103.91.210.52,103.91.210.55,103.91.0.0,Shenzhen,Guangdong,CN,22.54554,114.0683,,Asia/Shanghai
106.181.196.172,106.181.196.172,106.181.0.0,Fukuoka,Fukuoka,JP,33.5803,130.4711,812-0854,Asia/Tokyo
102.32.201.14,102.32.201.31,102.32.0.0,Centurion,Gauteng,ZA,-25.8744,28.1706,0172,Africa/Johannesburg
1.146.52.12,1.146.52.15,1.146.0.0,Brisbane,Queensland,AU,-27.46794,153.02809,4000,Australia/Brisbane
101.138.110.208,101.138.110.213,101.138.0.0,Taichung,Taiwan,TW,24.1469,120.6839,,Asia/Taipei
1.218.146.224,1.218.146.227,1.218.0.0,Pyeongchang,Gangwon-do,KR,37.37028,128.39306,25374,Asia/Seoul
102.184.102.0,102.184.102.127,102.184.0.0,Cairo,Cairo,EG,30.06263,31.24967,,Africa/Cairo
105.246.18.160,105.246.18.175,105.246.0.0,Johannesburg,Gauteng,ZA,-26.05,27.9667,2172,Africa/Johannesburg
1.187.99.77,1.187.99.77,1.187.0.0,Taleigao,Goa,IN,15.4752,73.8456,403005,Asia/Kolkata
1.200.91.173,1.200.91.174,1.200.0.0,Taichung,Taiwan,TW,24.1469,120.6839,,Asia/Taipei
101.112.94.238,101.112.94.246,101.112.0.0,Sydney,New South Wales,AU,-33.905,151.05053,2190,Australia/Sydney
106.196.60.34,106.196.60.45,106.196.0.0,Pānīpat,Haryana,IN,29.38747,76.96825,132103,Asia/Kolkata
104.28.124.4,104.28.124.5,104.28.0.0,Victoria,British Columbia,CA,48.4359,-123.35155,V8T,America/Vancouver
101.175.165.32,101.175.165.39,101.175.0.0,Kalgoorlie,Western Australia,AU,-30.78233,121.48545,6432,Australia/Perth
105.30.242.64,105.30.243.255,105.30.0.0,Durban,KwaZulu-Natal,ZA,-29.8579,31.0292,4001,Africa/Johannesburg
106.161.248.56,106.161.248.59,106.161.0.0,Gifu-shi,Gifu,JP,35.4419,136.7493,502-0929,Asia/Tokyo
101.166.119.148,101.166.119.151,101.166.0.0,Port Macquarie,New South Wales,AU,-31.43084,152.90894,2444,Australia/Sydney
105.72.254.81,105.72.254.83,105.72.0.0,Casablanca,Casablanca-Settat,MA,33.58831,-7.61138,29640,Africa/Casablanca
106.181.207.218,106.181.207.218,106.181.0.0,Ichinomiya,Aichi,JP,35.2949,136.8145,491-0883,Asia/Tokyo
102.169.217.64,102.169.217.95,102.169.0.0,As Sanad,Gafsa,TN,34.4628,9.26404,,Africa/Tunis
102.168.158.134,102.168.158.139,102.168.0.0,Sfax,Sfax Governorate,TN,34.74056,10.76028,,Africa/Tunis
1.33.61.242,1.33.61.243,1.33.0.0,Morioka,Iwate,JP,39.6863,141.1462,020-0864,Asia/Tokyo
104.51.143.244,104.51.143.247,104.51.0.0,Fremont,Michigan,US,43.46752,-85.942,49412,America/Detroit
104.254.103.42,104.254.103.42,104.254.0.0,Dinuba,California,US,36.54328,-119.38707,93618,America/Los_Angeles
105.205.255.104,105.205.255.105,105.205.0.0,Al Minyā,Minya,EG,28.09193,30.75813,,Africa/Cairo
103.77.69.224,103.77.69.255,103.77.0.0,Melbourne,Victoria,AU,-37.80565,145.034,3101,Australia/Melbourne
104.180.143.166,104.180.143.168,104.180.0.0,Houston,Texas,US,29.76328,-95.36327,77002,America/Chicago
101.139.235.227,101.139.235.227,101.139.0.0,Jiayi Shi,Taiwan,TW,23.47917,120.44889,,Asia/Taipei
106.171.19.238,106.171.19.238,106.171.0.0,Kazo,Saitama,JP,36.1207,139.6628,349-1146,Asia/Tokyo
1.52.3.32,1.52.3.47,1.52.0.0,Tuyên Quang,Tuyên Quang,VN,21.82356,105.21424,22150,Asia/Bangkok
101.180.137.174,101.180.137.176,101.180.0.0,Melbourne,Victoria,AU,-37.94225,145.1222,3169,Australia/Melbourne
106.207.137.15,106.207.137.15,106.207.0.0,Sarwār,Rajasthan,IN,26.06272,75.01104,305403,Asia/Kolkata
101.138.102.112,101.138.102.112,101.138.0.0,Keelung,Taiwan,TW,25.13089,121.74094,,Asia/Taipei
106.203.0.176,106.203.0.177,106.203.0.0,Chennai,Tamil Nadu,IN,13.08784,80.27847,600001,Asia/Kolkata
102.172.79.252,102.172.79.252,102.172.0.0,Sfax,Sfax Governorate,TN,34.74056,10.76028,,Africa/Tunis
101.136.16.116,101.136.16.121,101.136.0.0,Taichung,Taiwan,TW,24.1469,120.6839,,Asia/Taipei
103.145.126.12,103.145.126.20,103.145.0.0,Batam,Riau,ID,1.14937,104.02491,,Asia/Jakarta
102.168.113.127,102.168.113.127,102.168.0.0,Sfax,Sfax Governorate,TN,34.74056,10.76028,,Africa/Tunis
101.103.2.221,101.103.2.221,101.103.0.0,Darwin,Northern Territory,AU,-12.374,130.8822,0811,Australia/Darwin
101.1.146.60,101.1.146.60,101.1.0.0,Tokushima,Tokushima,JP,34.0261,134.5555,770-8022,Asia/Tokyo
106.198.100.201,106.198.100.201,106.198.0.0,Tirupattur,Tamil Nadu,IN,12.49239,78.56804,621105,Asia/Kolkata
102.189.98.64,102.189.98.255,102.189.0.0,Al Maḩallah al Kubrá,Gharbia,EG,30.97063,31.1669,,Africa/Cairo
105.199.59.56,105.199.59.63,105.199.0.0,Al Khārjah,New Valley,EG,25.45101,30.54653,,Africa/Cairo
106.204.151.154,106.204.151.155,106.204.0.0,Sonīpat,Haryana,IN,28.99478,77.01937,131001,Asia/Kolkata
105.153.42.80,105.153.42.167,105.153.0.0,Casablanca,Casablanca-Settat,MA,33.58831,-7.61138,29640,Africa/Casablanca
103.1.20.0,103.1.23.255,103.1.0.0,Tianjin,Tianjin,CN,39.14222,117.17667,,Asia/Shanghai
105.243.7.48,105.243.7.63,105.243.0.0,Brits,North-West,ZA,-25.7333,27.85,0216,Africa/Johannesburg
103.117.120.0,103.117.123.255,103.117.0.0,Wong Tai Sin,Wong Tai Sin,HK,22.35,114.18333,,Asia/Hong_Kong
105.244.55.250,105.244.55.250,105.244.0.0,Cape Town,Western Cape,ZA,-33.92584,18.42322,7945,Africa/Johannesburg
101.109.44.55,101.109.44.55,101.109.0.0,Si Maha Phot,Prachin Buri,TH,13.96597,101.51303,25140,Asia/Bangkok
102.109.255.40,102.109.255.63,102.109.0.0,As Sanad,Gafsa,TN,34.4628,9.26404,,Africa/Tunis
101.190.232.82,101.190.232.83,101.190.0.0,Nyngan,New South Wales,AU,-31.56375,147.19373,2825,Australia/Sydney
1.157.245.128,1.157.245.133,1.157.0.0,Sydney,New South Wales,AU,-33.76091,151.25936,2100,Australia/Sydney
103.137.71.66,103.137.71.67,103.137.0.0,Rawalpindi,Punjab,PK,33.59733,73.0479,46000,Asia/Karachi
1.121.167.164,1.121.167.167,1.121.0.0,Renmark West,South Australia,AU,-34.16531,140.7097,5341,Australia/Adelaide
104.14.87.120,104.14.87.123,104.14.0.0,Ely,Nevada,US,39.24744,-114.88863,89301,America/Los_Angeles
104.28.68.109,104.28.68.112,104.28.0.0,Lahore,Punjab,PK,31.558,74.35071,54000,Asia/Karachi
1.41.124.16,1.41.124.87,1.41.0.0,Sydney,New South Wales,AU,-34.01973,151.01296,2234,Australia/Sydney
101.189.24.118,101.189.24.119,101.189.0.0,Perth,Western Australia,AU,-32.13531,115.851,6164,Australia/Perth
105.153.109.112,105.153.109.175,105.153.0.0,Casablanca,Casablanca-Settat,MA,33.58831,-7.61138,29640,Africa/Casablanca
103.213.118.48,103.213.118.63,103.213.0.0,Palembang,South Sumatra,ID,-2.91673,104.7458,,Asia/Jakarta
1.209.11.162,1.209.11.163,1.209.0.0,Seoul,Seoul,KR,37.566,126.9784,03141,Asia/Seoul
1.145.188.240,1.145.188.242,1.145.0.0,Melbourne,Victoria,AU,-37.7101,144.92933,3046,Australia/Melbourne
1.20.22.38,1.20.22.39,1.20.0.0,Kaeng Khoi,Saraburi,TH,14.58617,100.99758,18110,Asia/Bangkok
102.132.253.0,102.132.253.255,102.132.0.0,Cape Town,Western Cape,ZA,-33.92584,18.42322,7945,Africa/Johannesburg
105.9.230.20,105.9.230.23,105.9.0.0,Cape Town,Western Cape,ZA,-33.92584,18.42322,7945,Africa/Johannesburg
1.121.187.38,1.121.187.39,1.121.0.0,Barmera,South Australia,AU,-34.25562,140.46147,5345,Australia/Adelaide
105.72.33.172,105.72.33.173,105.72.0.0,Sale,Rabat-Salé-Kénitra,MA,34.0531,-6.79846,11022,Africa/Casablanca
101.184.70.14,101.184.70.15,101.184.0.0,Newcastle,New South Wales,AU,-32.94739,151.70034,2289,Australia/Sydney
